{"type": "FeatureCollection", "features": [{"type": "Feature", "geometry": {"type": "Point", "coordinates": [19.9535188, 50.0506074]}, "properties": {"osm_id": "node/1241666890", "tags": {"amenity": "recycling", "recycling:glass": "yes", "recycling:paper": "yes", "recycling:plastic": "yes", "recycling:scrap_metal": "yes", "recycling_type": "container"}}}, {"type": "Feature", "geometry": {"type": "Point", "coordinates": [19.9602782, 50.0554881]}, "properties": {"osm_id": "node/1937276196", "tags": {"amenity": "recycling", "recycling:glass_bottles": "yes", "recycling_type": "container"}}}, {"type": "Feature", "geometry": {"type": "Point", "coordinates": [19.9508943, 50.05577]}, "properties": {"osm_id": "node/1937276197", "tags": {"amenity": "recycling", "recycling:glass": "yes", "recycling:paper": "yes", "recycling:plastic": "yes", "recycling:scrap_metal": "yes", "recycling_type": "container"}}}, {"type": "Feature", "geometry": {"type": "Point", "coordinates": [19.968, 50.0583287]}, "properties": {"osm_id": "node/1937276203", "tags": {"amenity": "recycling", "recycling:glass": "yes", "recycling:paper": "yes", "recycling:plastic": "yes", "recycling:scrap_metal": "yes", "recycling_type": "container"}}}, {"type": "Feature", "geometry": {"type": "Point", "coordinates": [19.9693378, 50.0586615]}, "properties": {"osm_id": "node/1937276206", "tags": {"amenity": "recycling", "recycling:clothes": "yes", "recycling:glass": "yes", "recycling:paper": "yes", "recycling:plastic": "yes", "recycling:scrap_metal": "yes", "recycling_type": "container"}}}, {"type": "Feature", "geometry": {"type": "Point", "coordinates": [19.9646013, 50.0604176]}, "properties": {"osm_id": "node/1937276221", "tags": {"amenity": "recycling", "recycling:glass": "yes", "recycling:paper": "yes", "recycling:plastic": "yes", "recycling:scrap_metal": "yes", "recycling_type": "container"}}}, {"type": "Feature", "geometry": {"type": "Point", "coordinates": [19.9592592, 50.0604405]}, "properties": {"osm_id": "node/1937276222", "tags": {"amenity": "recycling", "recycling:cans": "yes", "recycling:glass": "no", "recycling:glass_bottles": "yes", "recycling:paper": "yes", "recycling:plastic": "yes", "recycling:scrap_metal": "yes", "recycling_type": "container"}}}, {"type": "Feature", "geometry": {"type": "Point", "coordinates": [19.9524948, 50.0605297]}, "properties": {"osm_id": "node/1937276225", "tags": {"amenity": "recycling", "recycling:glass": "yes", "recycling:paper": "yes", "recycling:plastic": "yes", "recycling:scrap_metal": "yes", "recycling_type": "container"}}}, {"type": "Feature", "geometry": {"type": "Point", "coordinates": [19.9630657, 50.065573]}, "properties": {"osm_id": "node/1937276245", "tags": {"amenity": "recycling", "recycling:cans": "yes", "recycling:cardboard": "yes", "recycling:glass": "yes", "recycling:glass_bottles": "yes", "recycling:paper": "yes", "recycling:plastic": "yes", "recycling:plastic_bottles": "yes", "recycling:scrap_metal": "yes", "recycling_type": "container"}}}, {"type": "Feature", "geometry": {"type": "Point", "coordinates": [19.9679513, 50.0695687]}, "properties": {"osm_id": "node/1937276255", "tags": {"amenity": "recycling", "recycling:glass": "yes", "recycling:paper": "yes", "recycling:plastic": "yes", "recycling:scrap_metal": "yes", "recycling_type": "container"}}}, {"type": "Feature", "geometry": {"type": "Point", "coordinates": [19.963988, 50.0601667]}, "properties": {"osm_id": "node/3495404257", "tags": {"amenity": "waste_disposal"}}}, {"type": "Feature", "geometry": {"type": "Point", "coordinates": [19.9658775, 50.0602146]}, "properties": {"osm_id": "node/3495849821", "tags": {"amenity": "waste_disposal"}}}, {"type": "Feature", "geometry": {"type": "Point", "coordinates": [19.9643338, 50.0624313]}, "properties": {"osm_id": "node/3513253729", "tags": {"amenity": "waste_disposal"}}}, {"type": "Feature", "geometry": {"type": "Point", "coordinates": [19.9652876, 50.0609219]}, "properties": {"osm_id": "node/3538207932", "tags": {"amenity": "waste_disposal"}}}, {"type": "Feature", "geometry": {"type": "Point", "coordinates": [19.96624, 50.0610452]}, "properties": {"osm_id": "node/3538207944", "tags": {"amenity": "waste_disposal"}}}, {"type": "Feature", "geometry": {"type": "Point", "coordinates": [19.9651774, 50.0613415]}, "properties": {"osm_id": "node/3538207961", "tags": {"amenity": "waste_disposal"}}}, {"type": "Feature", "geometry": {"type": "Point", "coordinates": [19.9645672, 50.0614031]}, "properties": {"osm_id": "node/3538207970", "tags": {"amenity": "waste_disposal"}}}, {"type": "Feature", "geometry": {"type": "Point", "coordinates": [19.966284, 50.0614958]}, "properties": {"osm_id": "node/3538207977", "tags": {"access": "private", "amenity": "waste_disposal"}}}, {"type": "Feature", "geometry": {"type": "Point", "coordinates": [19.9652692, 50.0617568]}, "properties": {"osm_id": "node/3538207984", "tags": {"amenity": "waste_disposal"}}}, {"type": "Feature", "geometry": {"type": "Point", "coordinates": [19.9644486, 50.0617943]}, "properties": {"osm_id": "node/3538207986", "tags": {"amenity": "waste_disposal"}}}, {"type": "Feature", "geometry": {"type": "Point", "coordinates": [19.9662699, 50.0619369]}, "properties": {"osm_id": "node/3538208894", "tags": {"access": "private", "amenity": "waste_disposal"}}}, {"type": "Feature", "geometry": {"type": "Point", "coordinates": [19.9649411, 50.0622327]}, "properties": {"osm_id": "node/3538208923", "tags": {"amenity": "waste_disposal"}}}, {"type": "Feature", "geometry": {"type": "Point", "coordinates": [19.965942, 50.0623613]}, "properties": {"osm_id": "node/3538208937", "tags": {"amenity": "waste_disposal"}}}, {"type": "Feature", "geometry": {"type": "Point", "coordinates": [19.9284991, 50.0565575]}, "properties": {"osm_id": "node/3870442541", "tags": {"amenity": "recycling", "location": "overground", "recycling:cans": "yes", "recycling:glass": "no", "recycling:glass_bottles": "yes", "recycling:paper": "yes", "recycling:plastic": "yes", "recycling_type": "container"}}}, {"type": "Feature", "geometry": {"type": "Point", "coordinates": [19.9549795, 50.0550914]}, "properties": {"osm_id": "node/5269502073", "tags": {"amenity": "recycling", "recycling:glass": "yes", "recycling_type": "container"}}}, {"type": "Feature", "geometry": {"type": "Point", "coordinates": [19.9653996, 50.0551409]}, "properties": {"osm_id": "node/5794173369", "tags": {"amenity": "recycling", "recycling:aluminium": "yes", "recycling:glass": "yes", "recycling:glass_bottles": "yes", "recycling:paper": "yes", "recycling_type": "container"}}}, {"type": "Feature", "geometry": {"type": "Point", "coordinates": [19.9356123, 50.0567404]}, "properties": {"osm_id": "node/6430044370", "tags": {"amenity": "recycling", "opening_hours": "6-sunset", "recycling:bio": "yes", "recycling:bio_waste": "yes", "recycling:biodegradable": "yes", "recycling:green_waste": "yes", "recycling:organic": "yes", "recycling_type": "container"}}}, {"type": "Feature", "geometry": {"type": "Point", "coordinates": [19.9300427, 50.0679893]}, "properties": {"osm_id": "node/6905587097", "tags": {"amenity": "recycling", "check_date:recycling": "2022-01-26", "recycling:glass_bottles": "yes", "recycling_type": "container"}}}, {"type": "Feature", "geometry": {"type": "Point", "coordinates": [19.9312032, 50.0456596]}, "properties": {"osm_id": "node/7873186181", "tags": {"amenity": "waste_disposal", "survey:date": "2021-08-02"}}}, {"type": "Feature", "geometry": {"type": "Point", "coordinates": [19.9316409, 50.0450623]}, "properties": {"osm_id": "node/7873187285", "tags": {"amenity": "waste_disposal", "survey:date": "2021-08-02"}}}, {"type": "Feature", "geometry": {"type": "Point", "coordinates": [19.9536764, 50.0551691]}, "properties": {"osm_id": "node/8198722934", "tags": {"amenity": "recycling", "recycling:clothes": "yes", "recycling:shoes": "yes", "recycling_type": "container"}}}, {"type": "Feature", "geometry": {"type": "Point", "coordinates": [19.959294, 50.0475417]}, "properties": {"osm_id": "node/9051248718", "tags": {"amenity": "waste_disposal", "survey:date": "2021-08-31"}}}, {"type": "Feature", "geometry": {"type": "Point", "coordinates": [19.959282, 50.0475852]}, "properties": {"osm_id": "node/9051248719", "tags": {"amenity": "recycling", "recycling:glass_bottles": "yes", "recycling_type": "container", "survey:date": "2021-08-31"}}}, {"type": "Feature", "geometry": {"type": "Point", "coordinates": [19.9572087, 50.047109]}, "properties": {"osm_id": "node/9051257617", "tags": {"amenity": "recycling", "recycling:glass_bottles": "yes", "recycling_type": "container", "survey:date": "2021-08-31"}}}, {"type": "Feature", "geometry": {"type": "Point", "coordinates": [19.9622278, 50.0620005]}, "properties": {"osm_id": "node/9204885671", "tags": {"amenity": "waste_disposal", "survey:date": "2021-10-27"}}}, {"type": "Feature", "geometry": {"type": "Point", "coordinates": [19.9622008, 50.0619226]}, "properties": {"osm_id": "node/9204885672", "tags": {"amenity": "waste_disposal", "survey:date": "2021-10-27"}}}, {"type": "Feature", "geometry": {"type": "Point", "coordinates": [19.9725891, 50.059017]}, "properties": {"osm_id": "node/9680683717", "tags": {"access": "private", "amenity": "waste_disposal", "survey:date": "2022-04-20"}}}, {"type": "Feature", "geometry": {"type": "Point", "coordinates": [19.9648146, 50.0604048]}, "properties": {"osm_id": "node/9685859317", "tags": {"amenity": "waste_disposal", "survey:date": "2022-04-22"}}}, {"type": "Feature", "geometry": {"type": "Point", "coordinates": [19.9606352, 50.048786]}, "properties": {"osm_id": "node/9770381717", "tags": {"amenity": "recycling", "recycling_type": "container", "survey:date": "2022-05-25"}}}, {"type": "Feature", "geometry": {"type": "Point", "coordinates": [19.9669953, 50.0592492]}, "properties": {"osm_id": "node/9770423117", "tags": {"amenity": "waste_disposal", "survey:date": "2022-05-25"}}}, {"type": "Feature", "geometry": {"type": "Point", "coordinates": [19.971995, 50.0629909]}, "properties": {"osm_id": "node/9770423122", "tags": {"amenity": "recycling", "recycling_type": "container", "survey:date": "2022-05-25"}}}, {"type": "Feature", "geometry": {"type": "Point", "coordinates": [19.9676926, 50.0596977]}, "properties": {"osm_id": "node/9770423417", "tags": {"access": "private", "amenity": "waste_disposal", "survey:date": "2022-05-25"}}}, {"type": "Feature", "geometry": {"type": "Point", "coordinates": [19.9312568, 50.0456402]}, "properties": {"osm_id": "node/10043747818", "tags": {"amenity": "recycling", "recycling_type": "container", "survey:date": "2022-09-21"}}}, {"type": "Feature", "geometry": {"type": "Point", "coordinates": [19.9462339, 50.0667693]}, "properties": {"osm_id": "node/10122759367", "tags": {"amenity": "recycling", "indoor": "yes", "level": "0", "recycling:cans": "yes", "recycling:glass_bottles": "yes", "recycling:mixed": "yes", "recycling:paper": "yes", "recycling:plastic": "yes", "recycling_type": "container"}}}, {"type": "Feature", "geometry": {"type": "Point", "coordinates": [19.9461802, 50.0679016]}, "properties": {"osm_id": "node/10122759374", "tags": {"amenity": "recycling", "indoor": "yes", "level": "0", "recycling:cans": "yes", "recycling:glass_bottles": "yes", "recycling:mixed": "yes", "recycling:paper": "yes", "recycling:plastic": "yes", "recycling_type": "container"}}}, {"type": "Feature", "geometry": {"type": "Point", "coordinates": [19.9458467, 50.0679245]}, "properties": {"osm_id": "node/10123599359", "tags": {"amenity": "recycling", "indoor": "yes", "level": "0", "recycling:cans": "yes", "recycling:glass_bottles": "yes", "recycling:mixed": "yes", "recycling:paper": "yes", "recycling:plastic": "yes", "recycling_type": "container"}}}, {"type": "Feature", "geometry": {"type": "Point", "coordinates": [19.9461746, 50.0681536]}, "properties": {"osm_id": "node/10123599361", "tags": {"amenity": "recycling", "indoor": "yes", "level": "0", "recycling:cans": "yes", "recycling:glass_bottles": "yes", "recycling:mixed": "yes", "recycling:paper": "yes", "recycling:plastic": "yes", "recycling_type": "container"}}}, {"type": "Feature", "geometry": {"type": "Point", "coordinates": [19.9287029, 50.0456108]}, "properties": {"osm_id": "node/11029572003", "tags": {"amenity": "recycling", "recycling:electrical_items": "yes", "recycling_type": "container"}}}, {"type": "Feature", "geometry": {"type": "Point", "coordinates": [19.9250266, 50.0639453]}, "properties": {"osm_id": "node/11205796614", "tags": {"amenity": "recycling", "name": "Eko-Pudełko", "operator": "Miejskie Przedsiębiorstwo Oczyszczania Sp. z o.o.", "recycling:batteries": "yes", "recycling:electrical_items": "yes", "recycling:small_appliances": "yes", "recycling_type": "container", "website": "https://mpo.krakow.pl/pl/mieszkancy/uslugi/ekopudelko"}}}, {"type": "Feature", "geometry": {"type": "Point", "coordinates": [19.9472185, 50.0514594]}, "properties": {"osm_id": "node/11575017688", "tags": {"amenity": "waste_disposal"}}}, {"type": "Feature", "geometry": {"type": "Point", "coordinates": [19.9364573, 50.0542875]}, "properties": {"osm_id": "node/11748017849", "tags": {"amenity": "recycling", "recycling:glass_bottles": "yes", "recycling:paper": "yes", "recycling:plastic": "yes", "recycling:scrap_metal": "yes", "recycling_type": "container"}}}, {"type": "Feature", "geometry": {"type": "Point", "coordinates": [19.9647402, 50.067282]}, "properties": {"osm_id": "node/12162081284", "tags": {"amenity": "waste_disposal"}}}, {"type": "Feature", "geometry": {"type": "Point", "coordinates": [19.9670216, 50.0498934]}, "properties": {"osm_id": "node/12175522223", "tags": {"amenity": "waste_disposal"}}}, {"type": "Feature", "geometry": {"type": "Point", "coordinates": [19.9644029, 50.0658221]}, "properties": {"osm_id": "node/12248046333", "tags": {"amenity": "recycling", "recycling:glass": "yes", "recycling:glass_bottles": "yes", "recycling_type": "container"}}}, {"type": "Feature", "geometry": {"type": "Point", "coordinates": [19.9709947, 50.0614075]}, "properties": {"osm_id": "node/12302825282", "tags": {"amenity": "recycling", "recycling:glass": "yes", "recycling:glass_bottles": "yes", "recycling_type": "container"}}}, {"type": "Feature", "geometry": {"type": "Point", "coordinates": [19.9368755, 50.0541623]}, "properties": {"osm_id": "node/12375837724", "tags": {"amenity": "recycling", "recycling:glass": "yes", "recycling:glass_bottles": "yes", "recycling:metal": "yes", "recycling:paper": "yes", "recycling_type": "container"}}}, {"type": "Feature", "geometry": {"type": "Point", "coordinates": [19.9366869, 50.0547688]}, "properties": {"osm_id": "node/12375853239", "tags": {"amenity": "recycling", "recycling:glass": "yes", "recycling:metal": "yes", "recycling:paper": "yes", "recycling_type": "container"}}}, {"type": "Feature", "geometry": {"type": "Point", "coordinates": [19.9362875, 50.0547969]}, "properties": {"osm_id": "node/12375853240", "tags": {"amenity": "recycling", "recycling:glass": "yes", "recycling:glass_bottles": "yes", "recycling:metal": "yes", "recycling:paper": "yes", "recycling_type": "container"}}}, {"type": "Feature", "geometry": {"type": "Point", "coordinates": [19.9369211, 50.0539775]}, "properties": {"osm_id": "node/12375856619", "tags": {"amenity": "recycling", "recycling:glass": "yes", "recycling:glass_bottles": "yes", "recycling:metal": "yes", "recycling:paper": "yes", "recycling_type": "container"}}}, {"type": "Feature", "geometry": {"type": "Point", "coordinates": [19.9351103, 50.0550617]}, "properties": {"osm_id": "node/12375870055", "tags": {"amenity": "recycling", "recycling:glass_bottles": "yes", "recycling:metal": "yes", "recycling:paper": "yes", "recycling_type": "container"}}}, {"type": "Feature", "geometry": {"type": "Point", "coordinates": [19.9511754, 50.0673933]}, "properties": {"osm_id": "node/12389095448", "tags": {"access": "private", "amenity": "recycling", "check_date": "2024-12-01", "indoor": "yes", "level": "0", "recycling:glass": "yes", "recycling:paper": "yes", "recycling:plastic": "yes", "recycling_type": "container"}}}, {"type": "Feature", "geometry": {"type": "Point", "coordinates": [19.9602454, 50.0555594]}, "properties": {"osm_id": "node/12643679217", "tags": {"amenity": "waste_disposal"}}}, {"type": "Feature", "geometry": {"type": "Point", "coordinates": [19.9341468, 50.0542619]}, "properties": {"osm_id": "node/13046081497", "tags": {"amenity": "recycling", "recycling:paper": "yes", "recycling:plastic": "yes", "recycling_type": "container"}}}, {"type": "Feature", "geometry": {"type": "Point", "coordinates": [19.9350079, 50.0542222]}, "properties": {"osm_id": "node/13046163118", "tags": {"amenity": "recycling", "recycling:glass_bottles": "yes", "recycling:paper": "yes", "recycling_type": "container"}}}, {"type": "Feature", "geometry": {"type": "Point", "coordinates": [19.9345593, 50.0533683]}, "properties": {"osm_id": "node/13046171543", "tags": {"amenity": "recycling", "recycling:cans": "yes", "recycling:glass_bottles": "yes", "recycling:paper": "yes", "recycling:plastic": "yes", "recycling_type": "container"}}}, {"type": "Feature", "geometry": {"type": "Point", "coordinates": [19.9345337, 50.0539867]}, "properties": {"osm_id": "node/13046172574", "tags": {"amenity": "recycling", "recycling:cans": "yes", "recycling:plastic": "yes", "recycling_type": "container"}}}, {"type": "Feature", "geometry": {"type": "Point", "coordinates": [19.9491973, 50.05937]}, "properties": {"osm_id": "node/13094546949", "tags": {"amenity": "waste_disposal"}}}, {"type": "Feature", "geometry": {"type": "Point", "coordinates": [19.9624593, 50.0558]}, "properties": {"osm_id": "node/13699130845", "tags": {"amenity": "waste_disposal"}}}, {"type": "Feature", "geometry": {"type": "Point", "coordinates": [19.9521599, 50.0643287]}, "properties": {"osm_id": "node/13798429498", "tags": {"amenity": "waste_disposal"}}}, {"type": "Feature", "geometry": {"type": "Point", "coordinates": [19.9464719, 50.0490663]}, "properties": {"osm_id": "node/13982328143", "tags": {"access": "yes", "amenity": "waste_disposal", "waste": "trash;mixed"}}}, {"type": "Feature", "geometry": {"type": "Point", "coordinates": [19.9356319, 50.0543925]}, "properties": {"osm_id": "node/14183272487", "tags": {"amenity": "recycling", "recycling_type": "container"}}}, {"type": "Feature", "geometry": {"type": "Point", "coordinates": [19.9356288, 50.0543951]}, "properties": {"osm_id": "node/14183292113", "tags": {"amenity": "recycling", "recycling_type": "container"}}}, {"type": "Feature", "geometry": {"type": "Point", "coordinates": [19.9507128, 50.0697699]}, "properties": {"osm_id": "node/14188991536", "tags": {"amenity": "recycling", "recycling:paper": "yes", "recycling_type": "container"}}}, {"type": "Feature", "geometry": {"type": "Point", "coordinates": [19.9507239, 50.0697644]}, "properties": {"osm_id": "node/14188991537", "tags": {"amenity": "recycling", "recycling:beverage_cartons": "yes", "recycling:cans": "yes", "recycling:plastic_bottles": "yes", "recycling_type": "container"}}}, {"type": "Feature", "geometry": {"type": "Point", "coordinates": [19.9507341, 50.0697607]}, "properties": {"osm_id": "node/14188991538", "tags": {"amenity": "recycling", "recycling:glass": "yes", "recycling:glass_bottles": "yes", "recycling_type": "container"}}}, {"type": "Feature", "geometry": {"type": "Point", "coordinates": [19.94616, 50.0660902]}, "properties": {"osm_id": "node/14235485101", "tags": {"amenity": "recycling", "recycling_type": "container"}}}, {"type": "Feature", "geometry": {"type": "Point", "coordinates": [19.9271999, 50.0518892]}, "properties": {"osm_id": "way/154245075", "tags": {"amenity": "waste_disposal", "building": "yes"}}}, {"type": "Feature", "geometry": {"type": "Point", "coordinates": [19.940223, 50.0472812]}, "properties": {"osm_id": "way/295985613", "tags": {"amenity": "waste_disposal"}}}, {"type": "Feature", "geometry": {"type": "Point", "coordinates": [19.953508, 50.0455119]}, "properties": {"osm_id": "way/306843135", "tags": {"amenity": "waste_disposal", "building": "garbage_shed"}}}, {"type": "Feature", "geometry": {"type": "Point", "coordinates": [19.9374519, 50.0586232]}, "properties": {"osm_id": "way/334574012", "tags": {"access": "private", "amenity": "waste_disposal"}}}, {"type": "Feature", "geometry": {"type": "Point", "coordinates": [19.9607927, 50.054472]}, "properties": {"osm_id": "way/560485539", "tags": {"access": "private", "amenity": "waste_disposal", "building": "service", "building:levels": "1", "private": "residents"}}}, {"type": "Feature", "geometry": {"type": "Point", "coordinates": [19.9721108, 50.0582814]}, "properties": {"osm_id": "way/657270891", "tags": {"amenity": "waste_disposal", "building": "yes"}}}, {"type": "Feature", "geometry": {"type": "Point", "coordinates": [19.9501866, 50.0488942]}, "properties": {"osm_id": "way/1106180642", "tags": {"amenity": "waste_disposal", "building": "garbage_shed"}}}, {"type": "Feature", "geometry": {"type": "Point", "coordinates": [19.9619345, 50.0610784]}, "properties": {"osm_id": "way/1193029982", "tags": {"access": "private", "amenity": "waste_disposal", "building": "yes", "building:levels": "1"}}}, {"type": "Feature", "geometry": {"type": "Point", "coordinates": [19.9680622, 50.0699323]}, "properties": {"osm_id": "way/1205612294", "tags": {"amenity": "waste_disposal"}}}, {"type": "Feature", "geometry": {"type": "Point", "coordinates": [19.9534395, 50.057094]}, "properties": {"osm_id": "way/1214910125", "tags": {"amenity": "waste_disposal", "building": "yes"}}}, {"type": "Feature", "geometry": {"type": "Point", "coordinates": [19.961716, 50.0498321]}, "properties": {"osm_id": "way/1255734893", "tags": {"access": "private", "amenity": "waste_disposal", "building": "shed"}}}, {"type": "Feature", "geometry": {"type": "Point", "coordinates": [19.9394072, 50.0473394]}, "properties": {"osm_id": "way/1256974658", "tags": {"amenity": "waste_disposal", "building": "shed"}}}, {"type": "Feature", "geometry": {"type": "Point", "coordinates": [19.9302358, 50.0681822]}, "properties": {"osm_id": "way/1273104260", "tags": {"amenity": "recycling", "building": "service", "recycling_type": "container"}}}, {"type": "Feature", "geometry": {"type": "Point", "coordinates": [19.9607868, 50.0492457]}, "properties": {"osm_id": "way/1273521029", "tags": {"amenity": "waste_disposal", "building": "shed"}}}, {"type": "Feature", "geometry": {"type": "Point", "coordinates": [19.9663269, 50.0591207]}, "properties": {"osm_id": "way/1300097088", "tags": {"access": "private", "amenity": "waste_disposal", "building": "shed"}}}, {"type": "Feature", "geometry": {"type": "Point", "coordinates": [19.9662693, 50.0591332]}, "properties": {"osm_id": "way/1300097089", "tags": {"access": "private", "amenity": "waste_disposal", "building": "shed"}}}, {"type": "Feature", "geometry": {"type": "Point", "coordinates": [19.9643635, 50.0658347]}, "properties": {"osm_id": "way/1323591036", "tags": {"access": "private", "amenity": "waste_disposal", "building": "yes", "waste": "trash"}}}, {"type": "Feature", "geometry": {"type": "Point", "coordinates": [19.9630303, 50.0655552]}, "properties": {"osm_id": "way/1323591037", "tags": {"access": "private", "amenity": "waste_disposal", "building": "yes", "waste": "trash"}}}, {"type": "Feature", "geometry": {"type": "Point", "coordinates": [19.960447, 50.0630971]}, "properties": {"osm_id": "way/1323950756", "tags": {"access": "private", "amenity": "waste_disposal", "building": "yes", "waste": "trash"}}}, {"type": "Feature", "geometry": {"type": "Point", "coordinates": [19.9740063, 50.0479859]}, "properties": {"osm_id": "way/1328251683", "tags": {"access": "private", "amenity": "waste_disposal", "building": "yes", "waste": "trash"}}}, {"type": "Feature", "geometry": {"type": "Point", "coordinates": [19.9737023, 50.061471]}, "properties": {"osm_id": "way/1329741097", "tags": {"access": "private", "amenity": "waste_disposal", "building": "yes", "waste": "trash"}}}, {"type": "Feature", "geometry": {"type": "Point", "coordinates": [19.928631, 50.0611933]}, "properties": {"osm_id": "way/1415851970", "tags": {"access": "private", "amenity": "waste_disposal", "building": "service"}}}, {"type": "Feature", "geometry": {"type": "Point", "coordinates": [19.9704158, 50.0586796]}, "properties": {"osm_id": "way/1428064485", "tags": {"access": "private", "amenity": "waste_disposal", "building": "yes", "waste": "trash"}}}, {"type": "Feature", "geometry": {"type": "Point", "coordinates": [19.9692944, 50.0578297]}, "properties": {"osm_id": "way/1428064555", "tags": {"access": "private", "amenity": "waste_disposal", "building": "yes", "waste": "trash"}}}, {"type": "Feature", "geometry": {"type": "Point", "coordinates": [19.9540943, 50.0454169]}, "properties": {"osm_id": "way/1479885420", "tags": {"amenity": "waste_disposal", "building": "shed"}}}, {"type": "Feature", "geometry": {"type": "Point", "coordinates": [19.9534975, 50.0453614]}, "properties": {"osm_id": "way/1479888852", "tags": {"amenity": "waste_disposal", "building": "shed"}}}, {"type": "Feature", "geometry": {"type": "Point", "coordinates": [19.9638979, 50.067097]}, "properties": {"osm_id": "way/1527956875", "tags": {"amenity": "waste_disposal", "building": "yes"}}}, {"type": "Feature", "geometry": {"type": "Point", "coordinates": [19.9646391, 50.0671353]}, "properties": {"osm_id": "way/1527956890", "tags": {"amenity": "waste_disposal", "building": "yes"}}}]}