{"type": "FeatureCollection", "features": [{"type": "Feature", "geometry": {"type": "Point", "coordinates": [19.9623647, 50.058832]}, "properties": {"osm_id": "node/213592007", "tags": {"name": "Teatr Variété 02", "network": "Komunikacja Miejska w Krakowie", "network:wikidata": "Q1784404", "operator": "MPK Kraków", "operator:wikidata": "Q11780297", "public_transport": "stop_position", "railway": "tram_stop", "ref": "810-2t", "tram": "yes"}}}, {"type": "Feature", "geometry": {"type": "Point", "coordinates": [19.9673743, 50.060181]}, "properties": {"osm_id": "node/213593828", "tags": {"name": "Nullo 02", "network": "Komunikacja Miejska w Krakowie", "network:wikidata": "Q1784404", "operator": "MPK Kraków", "operator:wikidata": "Q11780297", "public_transport": "stop_position", "railway": "tram_stop", "ref": "811-2t", "tram": "yes"}}}, {"type": "Feature", "geometry": {"type": "Point", "coordinates": [19.9477349, 50.0682455]}, "properties": {"osm_id": "node/276679066", "tags": {"layer": "-2", "name": "Dworzec Główny Tunel 02", "name:en": "Main Station Tunnel", "network": "Komunikacja Miejska w Krakowie", "network:wikidata": "Q1784404", "operator": "MPK Kraków", "operator:wikidata": "Q11780297", "public_transport": "stop_position", "railway": "tram_stop", "tram": "yes"}}}, {"type": "Feature", "geometry": {"type": "Point", "coordinates": [19.9333778, 50.0638069]}, "properties": {"osm_id": "node/470643346", "tags": {"name": "Teatr Bagatela 02", "network": "Komunikacja Miejska w Krakowie", "network:short": "KMK", "network:wikidata": "Q1784404", "operator": "MPK Kraków", "operator:wikidata": "Q11780297", "public_transport": "stop_position", "railway": "tram_stop", "ref": "827-02", "tram": "yes", "wheelchair": "yes"}}}, {"type": "Feature", "geometry": {"type": "Point", "coordinates": [19.9548544, 50.0451313]}, "properties": {"osm_id": "node/602156572", "tags": {"name": "Limanowskiego 01", "network": "Komunikacja Miejska w Krakowie", "network:wikidata": "Q1784404", "operator": "MPK Kraków", "operator:wikidata": "Q11780297", "public_transport": "stop_position", "railway": "tram_stop", "ref": "641-1t", "tram": "yes", "url": "http://rozklady.mpk.krakow.pl/aktualne/p/p0641.htm", "wheelchair": "yes"}}}, {"type": "Feature", "geometry": {"type": "Point", "coordinates": [19.9311781, 50.0486118]}, "properties": {"osm_id": "node/630945148", "tags": {"bench": "yes", "name": "Rondo Grunwaldzkie 02", "network": "Komunikacja Miejska w Krakowie", "network:wikidata": "Q1784404", "operator": "MPK Kraków", "operator:wikidata": "Q11780297", "public_transport": "stop_position", "railway": "tram_stop", "ref": "501-02", "shelter": "yes", "tram": "yes", "url": "http://rozklady.mpk.krakow.pl/aktualne/p/p0501.htm", "wheelchair": "yes"}}}, {"type": "Feature", "geometry": {"type": "Point", "coordinates": [19.9379944, 50.0505021]}, "properties": {"osm_id": "node/630945156", "tags": {"name": "Orzeszkowej 02", "network": "Komunikacja Miejska w Krakowie", "network:wikidata": "Q1784404", "operator": "MPK Kraków", "operator:wikidata": "Q11780297", "public_transport": "stop_position", "railway": "tram_stop", "ref": "872-2t", "tram": "yes"}}}, {"type": "Feature", "geometry": {"type": "Point", "coordinates": [19.9712619, 50.0602495]}, "properties": {"osm_id": "node/638606056", "tags": {"name": "Fabryczna 02", "network": "Komunikacja Miejska w Krakowie", "network:wikidata": "Q1784404", "operator": "MPK Kraków", "operator:wikidata": "Q11780297", "public_transport": "stop_position", "railway": "tram_stop", "ref": "812-2t", "tram": "yes"}}}, {"type": "Feature", "geometry": {"type": "Point", "coordinates": [19.9586869, 50.0660336]}, "properties": {"osm_id": "node/651848336", "tags": {"name": "Rondo Mogilskie 05", "network": "Komunikacja Miejska w Krakowie", "network:short": "KMK", "network:wikidata": "Q141244075", "operator": "Zarząd Dróg Miasta Krakowa", "operator:short": "ZDMK", "operator:wikidata": "Q110401964", "public_transport": "stop_position", "railway": "tram_stop", "ref": "802-05", "shelter": "yes", "tram": "yes", "wheelchair": "limited"}}}, {"type": "Feature", "geometry": {"type": "Point", "coordinates": [19.9266847, 50.0560621]}, "properties": {"osm_id": "node/724399297", "tags": {"bench": "yes", "bin": "yes", "bus": "yes", "departures_board": "timetable", "highway": "bus_stop", "lit": "yes", "name": "Jubilat 04", "network": "KMK", "network:wikidata": "Q11687034", "public_transport": "platform", "ref": "823-04", "ref:kmal": "902", "shelter": "yes", "tactile_paving": "no"}}}, {"type": "Feature", "geometry": {"type": "Point", "coordinates": [19.9253445, 50.0467346]}, "properties": {"osm_id": "node/957085219", "tags": {"name": "Szwedzka 01", "network": "Komunikacja Miejska w Krakowie", "network:wikidata": "Q1784404", "operator": "MPK Kraków", "operator:wikidata": "Q11780297", "public_transport": "stop_position", "railway": "tram_stop", "ref": "522-01", "tram": "yes"}}}, {"type": "Feature", "geometry": {"type": "Point", "coordinates": [19.9444165, 50.0647859]}, "properties": {"osm_id": "node/1027047776", "tags": {"name": "Teatr Słowackiego 02", "network": "Komunikacja Miejska w Krakowie", "network:wikidata": "Q1784404", "operator": "MPK Kraków", "operator:wikidata": "Q11780297", "public_transport": "stop_position", "railway": "tram_stop", "ref": "801-02", "tram": "yes", "wheelchair": "yes"}}}, {"type": "Feature", "geometry": {"type": "Point", "coordinates": [19.9335693, 50.0582046]}, "properties": {"osm_id": "node/1118677968", "tags": {"bench": "no", "bin": "no", "bus": "yes", "bus_numbers": "304", "highway": "bus_stop", "lit": "no", "name": "Filharmonia 05", "name:de": "Philharmonie", "network": "ZTP w Krakowie", "network:wikidata": "Q110401950", "public_transport": "platform", "ref": "822-05", "shelter": "no", "tactile_paving": "no", "url": "http://rozklady.mpk.krakow.pl/aktualne/p/p0822.htm"}}}, {"type": "Feature", "geometry": {"type": "Point", "coordinates": [19.933698, 50.0575539]}, "properties": {"osm_id": "node/1118677969", "tags": {"bench": "no", "bin": "no", "bus": "yes", "bus_numbers": "304", "covered": "no", "departures_board": "timetable", "highway": "bus_stop", "name": "Filharmonia 06", "name:de": "Philharmonie", "network": "ZTP w Krakowie", "network:wikidata": "Q110401950", "passenger_information_display": "no", "public_transport": "platform", "ref": "822-06", "shelter": "no", "tactile_paving": "no", "wheelchair": "yes"}}}, {"type": "Feature", "geometry": {"type": "Point", "coordinates": [19.964249, 50.0499345]}, "properties": {"osm_id": "node/1418989418", "tags": {"name": "Zabłocie 02", "network": "Komunikacja Miejska w Krakowie", "network:wikidata": "Q1784404", "operator": "MPK Kraków", "operator:wikidata": "Q11780297", "public_transport": "stop_position", "railway": "tram_stop", "ref": "619-2t", "tram": "yes"}}}, {"type": "Feature", "geometry": {"type": "Point", "coordinates": [19.9675709, 50.0490275]}, "properties": {"osm_id": "node/1418989432", "tags": {"name": "Klimeckiego 02", "network": "Komunikacja Miejska w Krakowie", "network:wikidata": "Q1784404", "operator": "MPK Kraków", "operator:wikidata": "Q11780297", "public_transport": "stop_position", "railway": "tram_stop", "ref": "294-2t", "tram": "yes"}}}, {"type": "Feature", "geometry": {"type": "Point", "coordinates": [19.9424201, 50.0598125]}, "properties": {"osm_id": "node/1518864572", "tags": {"name": "Poczta Główna 01", "network": "Komunikacja Miejska w Krakowie", "network:short": "KMK", "network:wikidata": "Q1784404", "operator": "Miejskie Przedsiębiorstwo Komunikacyjne w Krakowie", "operator:short": "MPK Kraków", "operator:wikidata": "Q11780297", "public_transport": "stop_position", "railway": "tram_stop", "ref": "806-01", "tram": "yes", "wheelchair": "no"}}}, {"type": "Feature", "geometry": {"type": "Point", "coordinates": [19.9701478, 50.0604483]}, "properties": {"osm_id": "node/1764579350", "tags": {"name": "Fabryczna 01", "network": "Komunikacja Miejska w Krakowie", "network:wikidata": "Q1784404", "operator": "MPK Kraków", "operator:wikidata": "Q11780297", "public_transport": "stop_position", "railway": "tram_stop", "ref": "812-1t", "tram": "yes"}}}, {"type": "Feature", "geometry": {"type": "Point", "coordinates": [19.9705785, 50.0665192]}, "properties": {"osm_id": "node/1768224650", "tags": {"name": "Cystersów 01", "network": "Komunikacja Miejska w Krakowie", "network:wikidata": "Q1784404", "operator": "MPK Kraków", "operator:wikidata": "Q11780297", "public_transport": "stop_position", "railway": "tram_stop", "ref": "803-1t", "tram": "yes"}}}, {"type": "Feature", "geometry": {"type": "Point", "coordinates": [19.969156, 50.0665336]}, "properties": {"osm_id": "node/1768224656", "tags": {"name": "Cystersów 02", "network": "Komunikacja Miejska w Krakowie", "network:wikidata": "Q1784404", "operator": "MPK Kraków", "operator:wikidata": "Q11780297", "public_transport": "stop_position", "railway": "tram_stop", "ref": "803-2t", "tram": "yes"}}}, {"type": "Feature", "geometry": {"type": "Point", "coordinates": [19.9592821, 50.0649129]}, "properties": {"osm_id": "node/1887802513", "tags": {"name": "Rondo Mogilskie 03", "network": "Komunikacja Miejska w Krakowie", "network:short": "KMK", "network:wikidata": "Q141244075", "operator": "Zarząd Dróg Miasta Krakowa", "operator:short": "ZDMK", "operator:wikidata": "Q110401964", "public_transport": "stop_position", "railway": "tram_stop", "ref": "802-03", "tram": "yes"}}}, {"type": "Feature", "geometry": {"type": "Point", "coordinates": [19.9592977, 50.065055]}, "properties": {"osm_id": "node/1887802514", "tags": {"name": "Rondo Mogilskie 04", "network": "Komunikacja Miejska w Krakowie", "network:short": "KMK", "network:wikidata": "Q141244075", "operator": "Zarząd Dróg Miasta Krakowa", "operator:short": "ZDMK", "operator:wikidata": "Q110401964", "public_transport": "stop_position", "railway": "tram_stop", "ref": "802-04", "tram": "yes"}}}, {"type": "Feature", "geometry": {"type": "Point", "coordinates": [19.9598677, 50.0657653]}, "properties": {"osm_id": "node/1887812661", "tags": {"name": "Rondo Mogilskie 02", "network": "Komunikacja Miejska w Krakowie", "network:short": "KMK", "network:wikidata": "Q141244075", "operator": "Zarząd Dróg Miasta Krakowa", "operator:short": "ZDMK", "operator:wikidata": "Q110401964", "public_transport": "stop_position", "railway": "tram_stop", "ref": "802-02", "tram": "yes"}}}, {"type": "Feature", "geometry": {"type": "Point", "coordinates": [19.9477353, 50.068204]}, "properties": {"osm_id": "node/1888516300", "tags": {"layer": "-2", "name": "Dworzec Główny Tunel 01", "name:en": "Main Station Tunnel", "network": "Komunikacja Miejska w Krakowie", "network:wikidata": "Q1784404", "operator": "MPK Kraków", "operator:wikidata": "Q11780297", "public_transport": "stop_position", "railway": "tram_stop", "tram": "yes"}}}, {"type": "Feature", "geometry": {"type": "Point", "coordinates": [19.9596415, 50.0657692]}, "properties": {"osm_id": "node/1995730500", "tags": {"name": "Rondo Mogilskie 01", "network": "Komunikacja Miejska w Krakowie", "network:short": "KMK", "network:wikidata": "Q141244075", "operator": "Zarząd Dróg Miasta Krakowa", "operator:short": "ZDMK", "operator:wikidata": "Q110401964", "public_transport": "stop_position", "railway": "tram_stop", "ref": "802-01", "tram": "yes"}}}, {"type": "Feature", "geometry": {"type": "Point", "coordinates": [19.9427283, 50.0593736]}, "properties": {"osm_id": "node/2098694987", "tags": {"bench": "no", "bin": "yes", "bus": "yes", "departures_board": "timetable", "highway": "bus_stop", "lit": "yes", "name": "Poczta Główna 04", "network": "Komunikacja Miejska w Krakowie", "network:short": "KMK", "network:wikidata": "Q11687034", "public_transport": "platform", "ref": "806-04", "shelter": "no", "tactile_paving": "no"}}}, {"type": "Feature", "geometry": {"type": "Point", "coordinates": [19.944389, 50.0685884]}, "properties": {"osm_id": "node/2177458944", "tags": {"bench": "yes", "bin": "yes", "bus": "yes", "departures_board": "timetable", "highway": "bus_stop", "lit": "yes", "name": "Dworzec Główny Zachód 03", "network": "KMK", "network:wikidata": "Q11687034", "operator": "Zarząd Transportu Publicznego w Krakowie", "operator:wikidata": "Q110401950", "public_transport": "platform", "ref": "760-03", "shelter": "no", "tactile_paving": "yes"}}}, {"type": "Feature", "geometry": {"type": "Point", "coordinates": [19.9412017, 50.0520683]}, "properties": {"osm_id": "node/2418596862", "tags": {"name": "Stradom 02", "network": "Komunikacja Miejska w Krakowie", "network:wikidata": "Q1784404", "operator": "MPK Kraków", "operator:wikidata": "Q11780297", "public_transport": "stop_position", "railway": "tram_stop", "ref": "819-2t", "tram": "yes", "wheelchair": "no"}}}, {"type": "Feature", "geometry": {"type": "Point", "coordinates": [19.9255938, 50.0467789]}, "properties": {"osm_id": "node/2418596863", "tags": {"name": "Szwedzka 02", "network": "Komunikacja Miejska w Krakowie", "network:wikidata": "Q1784404", "operator": "MPK Kraków", "operator:wikidata": "Q11780297", "public_transport": "stop_position", "railway": "tram_stop", "ref": "522-02", "tram": "yes"}}}, {"type": "Feature", "geometry": {"type": "Point", "coordinates": [19.942057, 50.0522511]}, "properties": {"osm_id": "node/2418610054", "tags": {"name": "Stradom 03", "network": "Komunikacja Miejska w Krakowie", "network:wikidata": "Q1784404", "operator": "MPK Kraków", "operator:wikidata": "Q11780297", "public_transport": "stop_position", "railway": "tram_stop", "ref": "819-3t", "tram": "yes", "wheelchair": "yes"}}}, {"type": "Feature", "geometry": {"type": "Point", "coordinates": [19.939381, 50.0543131]}, "properties": {"osm_id": "node/2418766215", "tags": {"name": "Wawel 02", "network": "Komunikacja Miejska w Krakowie", "network:wikidata": "Q1784404", "operator": "MPK Kraków", "operator:wikidata": "Q11780297", "public_transport": "stop_position", "railway": "tram_stop", "ref": "818-2t", "tram": "yes", "wheelchair": "no"}}}, {"type": "Feature", "geometry": {"type": "Point", "coordinates": [19.9451482, 50.0568069]}, "properties": {"osm_id": "node/2419039772", "tags": {"name": "Starowiślna 02", "network": "Komunikacja Miejska w Krakowie", "network:short": "KMK", "network:wikidata": "Q1784404", "operator": "MPK Kraków", "operator:wikidata": "Q11780297", "public_transport": "stop_position", "railway": "tram_stop", "ref": "807-02", "tram": "yes", "wheelchair": "yes"}}}, {"type": "Feature", "geometry": {"type": "Point", "coordinates": [19.9550071, 50.0466859]}, "properties": {"osm_id": "node/2419064240", "tags": {"name": "Plac Bohaterów Getta 01", "network": "Komunikacja Miejska w Krakowie", "network:short": "KMK", "network:wikidata": "Q1784404", "public_transport": "stop_position", "railway": "tram_stop", "ref": "640-01", "tram": "yes", "url": "http://rozklady.mpk.krakow.pl/aktualne/p/p0640.htm"}}}, {"type": "Feature", "geometry": {"type": "Point", "coordinates": [19.9550474, 50.0466912]}, "properties": {"osm_id": "node/2419064241", "tags": {"name": "Plac Bohaterów Getta 02", "network": "Komunikacja Miejska w Krakowie", "network:short": "KMK", "network:wikidata": "Q1784404", "public_transport": "stop_position", "railway": "tram_stop", "ref": "640-02", "tram": "yes", "url": "http://rozklady.mpk.krakow.pl/aktualne/p/p0640.htm"}}}, {"type": "Feature", "geometry": {"type": "Point", "coordinates": [19.9488976, 50.0532057]}, "properties": {"osm_id": "node/2419106061", "tags": {"name": "Miodowa 02", "network": "Komunikacja Miejska w Krakowie", "network:short": "KMK", "network:wikidata": "Q1784404", "operator": "MPK Kraków", "operator:wikidata": "Q11780297", "public_transport": "stop_position", "railway": "tram_stop", "ref": "815-02", "tram": "yes", "wheelchair": "no"}}}, {"type": "Feature", "geometry": {"type": "Point", "coordinates": [19.9480787, 50.053934]}, "properties": {"osm_id": "node/2419106062", "tags": {"name": "Miodowa 01", "network": "Komunikacja Miejska w Krakowie", "network:short": "KMK", "network:wikidata": "Q1784404", "operator": "MPK Kraków", "operator:wikidata": "Q11780297", "public_transport": "stop_position", "railway": "tram_stop", "ref": "815-01", "tram": "yes", "wheelchair": "no"}}}, {"type": "Feature", "geometry": {"type": "Point", "coordinates": [19.951063, 50.0511328]}, "properties": {"osm_id": "node/2419106073", "tags": {"name": "św. Wawrzyńca 01", "network": "Komunikacja Miejska w Krakowie", "network:short": "KMK", "network:wikidata": "Q1784404", "operator": "MPK Kraków", "operator:wikidata": "Q11780297", "public_transport": "stop_position", "railway": "tram_stop", "ref": "816-01", "tram": "yes", "wheelchair": "no"}}}, {"type": "Feature", "geometry": {"type": "Point", "coordinates": [19.9330989, 50.0591774]}, "properties": {"osm_id": "node/2419367401", "tags": {"name": "Filharmonia 03", "network": "Komunikacja Miejska w Krakowie", "network:wikidata": "Q1784404", "operator": "MPK Kraków", "operator:wikidata": "Q11780297", "public_transport": "stop_position", "railway": "tram_stop", "ref": "822-3t", "tram": "yes", "wheelchair": "yes"}}}, {"type": "Feature", "geometry": {"type": "Point", "coordinates": [19.9270977, 50.0550088]}, "properties": {"osm_id": "node/2419720285", "tags": {"name": "Jubilat 02", "network": "Komunikacja Miejska w Krakowie", "network:wikidata": "Q1784404", "operator": "MPK Kraków", "operator:wikidata": "Q11780297", "public_transport": "stop_position", "railway": "tram_stop", "ref": "823-02", "tram": "yes"}}}, {"type": "Feature", "geometry": {"type": "Point", "coordinates": [19.9282103, 50.0555551]}, "properties": {"osm_id": "node/2419720286", "tags": {"name": "Jubilat 01", "network": "Komunikacja Miejska w Krakowie", "network:wikidata": "Q1784404", "operator": "MPK Kraków", "operator:wikidata": "Q11780297", "public_transport": "stop_position", "railway": "tram_stop", "ref": "823-01", "tram": "yes"}}}, {"type": "Feature", "geometry": {"type": "Point", "coordinates": [19.9329612, 50.0586597]}, "properties": {"osm_id": "node/2419768560", "tags": {"name": "Filharmonia 02", "network": "Komunikacja Miejska w Krakowie", "network:wikidata": "Q1784404", "operator": "MPK Kraków", "operator:wikidata": "Q11780297", "public_transport": "stop_position", "railway": "tram_stop", "ref": "822-02", "tram": "yes", "wheelchair": "yes"}}}, {"type": "Feature", "geometry": {"type": "Point", "coordinates": [19.9338703, 50.0590323]}, "properties": {"osm_id": "node/2419768561", "tags": {"name": "Filharmonia 01", "network": "Komunikacja Miejska w Krakowie", "network:wikidata": "Q1784404", "operator": "MPK Kraków", "operator:wikidata": "Q11780297", "public_transport": "stop_position", "railway": "tram_stop", "tram": "yes", "wheelchair": "yes"}}}, {"type": "Feature", "geometry": {"type": "Point", "coordinates": [19.9434554, 50.0479808]}, "properties": {"osm_id": "node/2419768562", "tags": {"name": "Plac Wolnica 01", "network": "Komunikacja Miejska w Krakowie", "network:short": "KMK", "network:wikidata": "Q1784404", "operator": "MPK Kraków", "operator:short": "MPK Kraków", "operator:wikidata": "Q11780297", "public_transport": "stop_position", "railway": "tram_stop", "ref": "820-01", "tram": "yes", "wheelchair": "yes"}}}, {"type": "Feature", "geometry": {"type": "Point", "coordinates": [19.9434346, 50.0481446]}, "properties": {"osm_id": "node/2419768563", "tags": {"name": "Plac Wolnica 02", "network": "Komunikacja Miejska w Krakowie", "network:short": "KMK", "network:wikidata": "Q1784404", "operator": "MPK Kraków", "operator:short": "MPK Kraków", "operator:wikidata": "Q11780297", "public_transport": "stop_position", "railway": "tram_stop", "ref": "820-02", "tram": "yes", "wheelchair": "yes"}}}, {"type": "Feature", "geometry": {"type": "Point", "coordinates": [19.9374895, 50.0591186]}, "properties": {"osm_id": "node/2419768564", "tags": {"name": "Plac Wszystkich Świętych 02", "network": "Komunikacja Miejska w Krakowie", "network:wikidata": "Q1784404", "operator": "MPK Kraków", "operator:wikidata": "Q11780297", "public_transport": "stop_position", "railway": "tram_stop", "ref": "821-2t", "tram": "yes", "wheelchair": "limited"}}}, {"type": "Feature", "geometry": {"type": "Point", "coordinates": [19.9383699, 50.0591266]}, "properties": {"osm_id": "node/2419768565", "tags": {"name": "Plac Wszystkich Świętych 01", "network": "Komunikacja Miejska w Krakowie", "network:wikidata": "Q1784404", "operator": "MPK Kraków", "operator:wikidata": "Q11780297", "public_transport": "stop_position", "railway": "tram_stop", "ref": "821-1t", "tram": "yes", "wheelchair": "yes"}}}, {"type": "Feature", "geometry": {"type": "Point", "coordinates": [19.9418181, 50.0593419]}, "properties": {"osm_id": "node/2419768566", "tags": {"name": "Poczta Główna 03", "network": "Komunikacja Miejska w Krakowie", "network:short": "KMK", "network:wikidata": "Q1784404", "operator": "Miejskie Przedsiębiorstwo Komunikacyjne w Krakowie", "operator:short": "MPK Kraków", "operator:wikidata": "Q11780297", "public_transport": "stop_position", "railway": "tram_stop", "ref": "806-03", "tram": "yes", "wheelchair": "no"}}}, {"type": "Feature", "geometry": {"type": "Point", "coordinates": [19.9423858, 50.050864]}, "properties": {"osm_id": "node/2419768567", "tags": {"name": "Stradom 04", "network": "Komunikacja Miejska w Krakowie", "network:short": "KMK", "network:wikidata": "Q1784404", "operator": "Miejskie Przedsiębiorstwo Komunikacyjne w Krakowie", "operator:short": "MPK Kraków", "operator:wikidata": "Q11780297", "public_transport": "stop_position", "railway": "tram_stop", "ref": "819-04", "tram": "yes", "wheelchair": "yes"}}}, {"type": "Feature", "geometry": {"type": "Point", "coordinates": [19.941335, 50.0514795]}, "properties": {"osm_id": "node/2419768568", "tags": {"name": "Stradom 01", "network": "Komunikacja Miejska w Krakowie", "network:wikidata": "Q1784404", "operator": "MPK Kraków", "operator:wikidata": "Q11780297", "public_transport": "stop_position", "railway": "tram_stop", "ref": "819-1t", "tram": "yes", "wheelchair": "yes"}}}, {"type": "Feature", "geometry": {"type": "Point", "coordinates": [19.9408874, 50.0584541]}, "properties": {"osm_id": "node/2419768586", "tags": {"name": "św. Gertrudy 01", "network": "Komunikacja Miejska w Krakowie", "network:wikidata": "Q1784404", "operator": "MPK Kraków", "operator:wikidata": "Q11780297", "public_transport": "stop_position", "railway": "tram_stop", "ref": "817-1t", "tram": "yes", "wheelchair": "no"}}}, {"type": "Feature", "geometry": {"type": "Point", "coordinates": [19.9256516, 50.0595283]}, "properties": {"osm_id": "node/2419821165", "tags": {"name": "Muzeum Narodowe 01", "network": "Komunikacja Miejska w Krakowie", "network:wikidata": "Q1784404", "operator": "MPK Kraków", "operator:wikidata": "Q11780297", "public_transport": "stop_position", "railway": "tram_stop", "ref": "825-1t", "tram": "yes", "wheelchair": "yes"}}}, {"type": "Feature", "geometry": {"type": "Point", "coordinates": [19.930607, 50.0602515]}, "properties": {"osm_id": "node/2419821166", "tags": {"name": "UJ / AST 01", "network": "Komunikacja Miejska w Krakowie", "network:wikidata": "Q1784404", "operator": "MPK Kraków", "operator:wikidata": "Q11780297", "public_transport": "stop_position", "railway": "tram_stop", "ref": "824-01", "tram": "yes", "wheelchair": "yes"}}}, {"type": "Feature", "geometry": {"type": "Point", "coordinates": [19.9325964, 50.0630575]}, "properties": {"osm_id": "node/2419894822", "tags": {"name": "Teatr Bagatela 01", "network": "Komunikacja Miejska w Krakowie", "network:short": "KMK", "network:wikidata": "Q1784404", "operator": "MPK Kraków", "operator:wikidata": "Q11780297", "public_transport": "stop_position", "railway": "tram_stop", "ref": "827-01", "tram": "yes", "wheelchair": "yes"}}}, {"type": "Feature", "geometry": {"type": "Point", "coordinates": [19.9293711, 50.0666264]}, "properties": {"osm_id": "node/2419959763", "tags": {"name": "Stefana Batorego 01", "network": "Komunikacja Miejska w Krakowie", "network:short": "KMK", "network:wikidata": "Q1784404", "operator": "MPK Kraków", "operator:wikidata": "Q11780297", "public_transport": "stop_position", "railway": "tram_stop", "ref": "828-01", "tram": "yes", "wheelchair": "yes"}}}, {"type": "Feature", "geometry": {"type": "Point", "coordinates": [19.9270213, 50.068664]}, "properties": {"osm_id": "node/2419959766", "tags": {"name": "Plac Inwalidów 01", "network": "Komunikacja Miejska w Krakowie", "network:short": "KMK", "network:wikidata": "Q1784404", "operator": "Miejskie Przedsiębiorstwo Komunikacyjne w Krakowie", "operator:short": "MPK Kraków", "operator:wikidata": "Q11780297", "public_transport": "stop_position", "railway": "tram_stop", "ref": "829-01", "tram": "yes", "wheelchair": "yes"}}}, {"type": "Feature", "geometry": {"type": "Point", "coordinates": [19.9258944, 50.0695926]}, "properties": {"osm_id": "node/2419959767", "tags": {"name": "Plac Inwalidów 02", "network": "Komunikacja Miejska w Krakowie", "network:wikidata": "Q1784404", "operator": "MPK Kraków", "operator:wikidata": "Q11780297", "public_transport": "stop_position", "railway": "tram_stop", "ref": "829-02", "tram": "yes", "wheelchair": "yes"}}}, {"type": "Feature", "geometry": {"type": "Point", "coordinates": [19.9326155, 50.0637373]}, "properties": {"osm_id": "node/2419959769", "tags": {"name": "Teatr Bagatela 03", "network": "Komunikacja Miejska w Krakowie", "network:wikidata": "Q1784404", "operator": "MPK Kraków", "operator:wikidata": "Q11780297", "public_transport": "stop_position", "railway": "tram_stop", "ref": "827-03", "tram": "yes", "wheelchair": "no"}}}, {"type": "Feature", "geometry": {"type": "Point", "coordinates": [19.9386241, 50.0662339]}, "properties": {"osm_id": "node/2420069703", "tags": {"name": "Stary Kleparz 02", "network": "Komunikacja Miejska w Krakowie", "network:short": "KMK", "network:wikidata": "Q1784404", "operator": "MPK Kraków", "operator:wikidata": "Q11780297", "public_transport": "stop_position", "railway": "tram_stop", "ref": "833-02", "tram": "yes", "wheelchair": "yes"}}}, {"type": "Feature", "geometry": {"type": "Point", "coordinates": [19.9396874, 50.0662923]}, "properties": {"osm_id": "node/2420153432", "tags": {"name": "Stary Kleparz 01", "network": "Komunikacja Miejska w Krakowie", "network:wikidata": "Q1784404", "operator": "MPK Kraków", "operator:wikidata": "Q11780297", "public_transport": "stop_position", "railway": "tram_stop", "ref": "833-1t", "tram": "yes", "wheelchair": "no"}}}, {"type": "Feature", "geometry": {"type": "Point", "coordinates": [19.9389538, 50.0666541]}, "properties": {"osm_id": "node/2420153433", "tags": {"name": "Stary Kleparz 03", "network": "Komunikacja Miejska w Krakowie", "network:wikidata": "Q1784404", "operator": "MPK Kraków", "operator:wikidata": "Q11780297", "public_transport": "stop_position", "railway": "tram_stop", "ref": "833-03", "tram": "yes", "wheelchair": "limited"}}}, {"type": "Feature", "geometry": {"type": "Point", "coordinates": [19.9453418, 50.0676885]}, "properties": {"osm_id": "node/2420153434", "tags": {"name": "Dworzec Główny Zachód 01", "network": "Komunikacja Miejska w Krakowie", "network:wikidata": "Q1784404", "operator": "MPK Kraków", "operator:wikidata": "Q11780297", "public_transport": "stop_position", "railway": "tram_stop", "ref": "760-1t", "tram": "yes"}}}, {"type": "Feature", "geometry": {"type": "Point", "coordinates": [19.9456263, 50.0646175]}, "properties": {"osm_id": "node/2420200260", "tags": {"name": "Teatr Słowackiego 01", "network": "Komunikacja Miejska w Krakowie", "network:short": "KMK", "network:wikidata": "Q1784404", "operator": "Miejskie Przedsiębiorstwo Komunikacyjne w Krakowie", "operator:short": "MPK Kraków", "operator:wikidata": "Q11780297", "public_transport": "stop_position", "railway": "tram_stop", "ref": "801-01", "tram": "yes", "wheelchair": "yes"}}}, {"type": "Feature", "geometry": {"type": "Point", "coordinates": [19.9511035, 50.0650488]}, "properties": {"osm_id": "node/2420200261", "tags": {"name": "Lubicz 02", "network": "Komunikacja Miejska w Krakowie", "network:short": "KMK", "network:wikidata": "Q1784404", "operator": "Miejskie Przedsiębiorstwo Komunikacyjne w Krakowie", "operator:short": "MPK Kraków", "operator:wikidata": "Q11780297", "public_transport": "stop_position", "railway": "tram_stop", "ref": "851-02", "tram": "yes"}}}, {"type": "Feature", "geometry": {"type": "Point", "coordinates": [19.952247, 50.0651825]}, "properties": {"osm_id": "node/2420200262", "tags": {"name": "Lubicz 01", "network": "Komunikacja Miejska w Krakowie", "network:short": "KMK", "network:wikidata": "Q1784404", "operator": "Miejskie Przedsiębiorstwo Komunikacyjne w Krakowie", "operator:short": "MPK Kraków", "operator:wikidata": "Q11780297", "public_transport": "stop_position", "railway": "tram_stop", "ref": "851-01", "tram": "yes"}}}, {"type": "Feature", "geometry": {"type": "Point", "coordinates": [19.9450018, 50.0641578]}, "properties": {"osm_id": "node/2420216111", "tags": {"name": "Teatr Słowackiego 03", "network": "Komunikacja Miejska w Krakowie", "network:short": "KMK", "network:wikidata": "Q1784404", "operator": "Miejskie Przedsiębiorstwo Komunikacyjne w Krakowie", "operator:short": "MPK Kraków", "operator:wikidata": "Q11780297", "public_transport": "stop_position", "railway": "tram_stop", "ref": "801-03", "tram": "yes", "wheelchair": "yes"}}}, {"type": "Feature", "geometry": {"type": "Point", "coordinates": [19.951684, 50.0655639]}, "properties": {"osm_id": "node/2420233974", "tags": {"name": "Lubicz 03", "network": "Komunikacja Miejska w Krakowie", "network:short": "KMK", "network:wikidata": "Q1784404", "operator": "Miejskie Przedsiębiorstwo Komunikacyjne w Krakowie", "operator:short": "MPK Kraków", "operator:wikidata": "Q11780297", "public_transport": "stop_position", "railway": "tram_stop", "ref": "851-03", "tram": "yes"}}}, {"type": "Feature", "geometry": {"type": "Point", "coordinates": [19.9522054, 50.0675583]}, "properties": {"osm_id": "node/2420233975", "tags": {"name": "Uniwersytet Ekonomiczny 01", "network": "Komunikacja Miejska w Krakowie", "network:wikidata": "Q1784404", "operator": "MPK Kraków", "operator:wikidata": "Q11780297", "public_transport": "stop_position", "railway": "tram_stop", "ref": "852-1t", "tram": "yes"}}}, {"type": "Feature", "geometry": {"type": "Point", "coordinates": [19.9526646, 50.0683695]}, "properties": {"osm_id": "node/2420233976", "tags": {"name": "Uniwersytet Ekonomiczny 02", "network": "Komunikacja Miejska w Krakowie", "network:wikidata": "Q1784404", "operator": "MPK Kraków", "operator:wikidata": "Q11780297", "public_transport": "stop_position", "railway": "tram_stop", "ref": "852-2t", "tram": "yes"}}}, {"type": "Feature", "geometry": {"type": "Point", "coordinates": [19.9577358, 50.0575518]}, "properties": {"osm_id": "node/2420246141", "tags": {"bus": "yes", "name": "Rondo Grzegórzeckie 02", "network": "Komunikacja Miejska w Krakowie", "network:short": "KMK", "network:wikidata": "Q1784404", "operator": "Miejskie Przedsiębiorstwo Komunikacyjne w Krakowie", "operator:short": "MPK Kraków", "operator:wikidata": "Q11780297", "public_transport": "stop_position", "railway": "tram_stop", "ref": "809-02", "tram": "yes"}}}, {"type": "Feature", "geometry": {"type": "Point", "coordinates": [19.9461252, 50.0573083]}, "properties": {"osm_id": "node/2420263459", "tags": {"name": "Starowiślna 03", "network": "Komunikacja Miejska w Krakowie", "network:short": "KMK", "network:wikidata": "Q1784404", "operator": "MPK Kraków", "operator:wikidata": "Q11780297", "public_transport": "stop_position", "railway": "tram_stop", "ref": "807-03", "tram": "yes"}}}, {"type": "Feature", "geometry": {"type": "Point", "coordinates": [19.9306448, 50.0484771]}, "properties": {"osm_id": "node/2422656435", "tags": {"bench": "yes", "name": "Rondo Grunwaldzkie 01", "network": "Komunikacja Miejska w Krakowie", "network:wikidata": "Q1784404", "operator": "MPK Kraków", "operator:wikidata": "Q11780297", "public_transport": "stop_position", "railway": "tram_stop", "ref": "501-01", "shelter": "yes", "tram": "yes", "url": "http://rozklady.mpk.krakow.pl/aktualne/p/p0501.htm", "wheelchair": "yes"}}}, {"type": "Feature", "geometry": {"type": "Point", "coordinates": [19.9389434, 50.0506694]}, "properties": {"osm_id": "node/2422680047", "tags": {"name": "Orzeszkowej 01", "network": "Komunikacja Miejska w Krakowie", "network:wikidata": "Q1784404", "operator": "MPK Kraków", "operator:wikidata": "Q11780297", "public_transport": "stop_position", "railway": "tram_stop", "ref": "872-1t", "tram": "yes"}}}, {"type": "Feature", "geometry": {"type": "Point", "coordinates": [19.9408506, 50.0584617]}, "properties": {"osm_id": "node/2422880689", "tags": {"name": "św. Gertrudy 02", "network": "Komunikacja Miejska w Krakowie", "network:wikidata": "Q1784404", "operator": "MPK Kraków", "operator:wikidata": "Q11780297", "public_transport": "stop_position", "railway": "tram_stop", "ref": "817-2t", "tram": "yes", "wheelchair": "no"}}}, {"type": "Feature", "geometry": {"type": "Point", "coordinates": [19.9460278, 50.0572586]}, "properties": {"osm_id": "node/2423003234", "tags": {"name": "Starowiślna 04", "network": "Komunikacja Miejska w Krakowie", "network:short": "KMK", "network:wikidata": "Q1784404", "operator": "MPK Kraków", "operator:wikidata": "Q11780297", "public_transport": "stop_position", "railway": "tram_stop", "ref": "807-04", "tram": "yes"}}}, {"type": "Feature", "geometry": {"type": "Point", "coordinates": [19.9445456, 50.0573091]}, "properties": {"osm_id": "node/2423003235", "tags": {"name": "Starowiślna 01", "network": "Komunikacja Miejska w Krakowie", "network:wikidata": "Q1784404", "operator": "MPK Kraków", "operator:wikidata": "Q11780297", "public_transport": "stop_position", "railway": "tram_stop", "ref": "807-1t", "tram": "yes"}}}, {"type": "Feature", "geometry": {"type": "Point", "coordinates": [19.9507376, 50.0514803]}, "properties": {"osm_id": "node/2423056677", "tags": {"name": "św. Wawrzyńca 02", "network": "Komunikacja Miejska w Krakowie", "network:short": "KMK", "network:wikidata": "Q1784404", "operator": "MPK Kraków", "operator:wikidata": "Q11780297", "public_transport": "stop_position", "railway": "tram_stop", "ref": "816-02", "tram": "yes", "wheelchair": "no"}}}, {"type": "Feature", "geometry": {"type": "Point", "coordinates": [19.9451491, 50.0651019]}, "properties": {"osm_id": "node/2423481568", "tags": {"name": "Teatr Słowackiego 04", "network": "Komunikacja Miejska w Krakowie", "network:short": "KMK", "network:wikidata": "Q1784404", "operator": "Miejskie Przedsiębiorstwo Komunikacyjne w Krakowie", "operator:short": "MPK Kraków", "operator:wikidata": "Q11780297", "public_transport": "stop_position", "railway": "tram_stop", "ref": "801-04", "tram": "yes", "wheelchair": "yes"}}}, {"type": "Feature", "geometry": {"type": "Point", "coordinates": [19.937508, 50.0696251]}, "properties": {"osm_id": "node/2423789750", "tags": {"name": "Pędzichów 02", "network": "Komunikacja Miejska w Krakowie", "network:short": "KMK", "network:wikidata": "Q1784404", "operator": "MPK Kraków", "operator:wikidata": "Q11780297", "public_transport": "stop_position", "railway": "tram_stop", "ref": "834-02", "tram": "yes", "wheelchair": "no"}}}, {"type": "Feature", "geometry": {"type": "Point", "coordinates": [19.9375493, 50.069643]}, "properties": {"osm_id": "node/2423789754", "tags": {"name": "Pędzichów 01", "network": "Komunikacja Miejska w Krakowie", "network:short": "KMK", "network:wikidata": "Q1784404", "operator": "MPK Kraków", "operator:wikidata": "Q11780297", "public_transport": "stop_position", "railway": "tram_stop", "ref": "834-01", "tram": "yes", "wheelchair": "no"}}}, {"type": "Feature", "geometry": {"type": "Point", "coordinates": [19.9425326, 50.0592284]}, "properties": {"osm_id": "node/2424015724", "tags": {"name": "Poczta Główna 02", "network": "Komunikacja Miejska w Krakowie", "network:short": "KMK", "network:wikidata": "Q1784404", "operator": "Miejskie Przedsiębiorstwo Komunikacyjne w Krakowie", "operator:short": "MPK Kraków", "operator:wikidata": "Q11780297", "public_transport": "stop_position", "railway": "tram_stop", "ref": "806-02", "tram": "yes"}}}, {"type": "Feature", "geometry": {"type": "Point", "coordinates": [19.9589469, 50.0569182]}, "properties": {"osm_id": "node/2424076383", "tags": {"name": "Rondo Grzegórzeckie 04", "network": "Komunikacja Miejska w Krakowie", "network:short": "KMK", "network:wikidata": "Q1784404", "operator": "MPK Kraków", "operator:wikidata": "Q11780297", "public_transport": "stop_position", "railway": "tram_stop", "ref": "809-04", "tram": "yes"}}}, {"type": "Feature", "geometry": {"type": "Point", "coordinates": [19.9602845, 50.0578951]}, "properties": {"osm_id": "node/2424076384", "tags": {"name": "Rondo Grzegórzeckie 01", "network": "Komunikacja Miejska w Krakowie", "network:short": "KMK", "network:wikidata": "Q1784404", "operator": "Miejskie Przedsiębiorstwo Komunikacyjne w Krakowie", "operator:short": "MPK Kraków", "operator:wikidata": "Q11780297", "public_transport": "stop_position", "railway": "tram_stop", "ref": "809-01", "tram": "yes"}}}, {"type": "Feature", "geometry": {"type": "Point", "coordinates": [19.9488829, 50.058652]}, "properties": {"osm_id": "node/2424088455", "tags": {"name": "Hala Targowa 01", "network": "Komunikacja Miejska w Krakowie", "network:wikidata": "Q1784404", "operator": "MPK Kraków", "operator:wikidata": "Q11780297", "public_transport": "stop_position", "railway": "tram_stop", "ref": "808-01", "shelter": "yes", "tram": "yes"}}}, {"type": "Feature", "geometry": {"type": "Point", "coordinates": [19.9488242, 50.0586812]}, "properties": {"osm_id": "node/2424088456", "tags": {"name": "Hala Targowa 02", "network": "Komunikacja Miejska w Krakowie", "network:wikidata": "Q1784404", "operator": "MPK Kraków", "operator:wikidata": "Q11780297", "public_transport": "stop_position", "railway": "tram_stop", "ref": "808-02", "shelter": "yes", "tram": "yes"}}}, {"type": "Feature", "geometry": {"type": "Point", "coordinates": [19.9454008, 50.0679781]}, "properties": {"osm_id": "node/2424803961", "tags": {"name": "Dworzec Główny Zachód 02", "network": "Komunikacja Miejska w Krakowie", "network:wikidata": "Q1784404", "operator": "MPK Kraków", "operator:wikidata": "Q11780297", "public_transport": "stop_position", "railway": "tram_stop", "ref": "760-2t", "tram": "yes"}}}, {"type": "Feature", "geometry": {"type": "Point", "coordinates": [19.9667934, 50.0600009]}, "properties": {"osm_id": "node/2426058892", "tags": {"name": "Nullo 01", "network": "Komunikacja Miejska w Krakowie", "network:wikidata": "Q1784404", "operator": "MPK Kraków", "operator:wikidata": "Q11780297", "public_transport": "stop_position", "railway": "tram_stop", "ref": "811-1t", "tram": "yes"}}}, {"type": "Feature", "geometry": {"type": "Point", "coordinates": [19.9625253, 50.058859]}, "properties": {"osm_id": "node/2426058893", "tags": {"name": "Teatr Variété 01", "network": "Komunikacja Miejska w Krakowie", "network:wikidata": "Q1784404", "operator": "MPK Kraków", "operator:wikidata": "Q11780297", "public_transport": "stop_position", "railway": "tram_stop", "ref": "810-1t", "tram": "yes"}}}, {"type": "Feature", "geometry": {"type": "Point", "coordinates": [19.9288508, 50.0670281]}, "properties": {"osm_id": "node/2427903882", "tags": {"name": "Stefana Batorego 02", "network": "Komunikacja Miejska w Krakowie", "network:short": "KMK", "network:wikidata": "Q1784404", "operator": "MPK Kraków", "operator:wikidata": "Q11780297", "public_transport": "stop_position", "railway": "tram_stop", "ref": "828-02", "tram": "yes"}}}, {"type": "Feature", "geometry": {"type": "Point", "coordinates": [19.9676684, 50.0489358]}, "properties": {"osm_id": "node/2431520653", "tags": {"name": "Klimeckiego 01", "network": "Komunikacja Miejska w Krakowie", "network:wikidata": "Q1784404", "operator": "MPK Kraków", "operator:wikidata": "Q11780297", "public_transport": "stop_position", "railway": "tram_stop", "ref": "294-1t", "tram": "yes"}}}, {"type": "Feature", "geometry": {"type": "Point", "coordinates": [19.9651699, 50.0496962]}, "properties": {"osm_id": "node/2431520663", "tags": {"name": "Zabłocie 01", "network": "Komunikacja Miejska w Krakowie", "network:wikidata": "Q1784404", "operator": "MPK Kraków", "operator:wikidata": "Q11780297", "public_transport": "stop_position", "railway": "tram_stop", "ref": "619-1t", "tram": "yes"}}}, {"type": "Feature", "geometry": {"type": "Point", "coordinates": [19.9592292, 50.0584493]}, "properties": {"osm_id": "node/2431530708", "tags": {"name": "Rondo Grzegórzeckie 03", "network": "Komunikacja Miejska w Krakowie", "network:short": "KMK", "network:wikidata": "Q1784404", "operator": "MPK Kraków", "operator:wikidata": "Q11780297", "public_transport": "stop_position", "railway": "tram_stop", "ref": "809-03", "tram": "yes"}}}, {"type": "Feature", "geometry": {"type": "Point", "coordinates": [19.9271343, 50.0565214]}, "properties": {"osm_id": "node/2611219192", "tags": {"bench": "yes", "bin": "yes", "bus": "yes", "departures_board": "timetable", "highway": "bus_stop", "lit": "yes", "name": "Jubilat 03", "network": "KMK", "network:wikidata": "Q11687034", "public_transport": "platform", "ref": "823-03", "ref:kmal": "4507", "shelter": "yes", "tactile_paving": "no", "wheelchair": "yes"}}}, {"type": "Feature", "geometry": {"type": "Point", "coordinates": [19.9396227, 50.0544532]}, "properties": {"osm_id": "node/2992273250", "tags": {"name": "Wawel 01", "network": "Komunikacja Miejska w Krakowie", "network:wikidata": "Q1784404", "operator": "MPK Kraków", "operator:wikidata": "Q11780297", "public_transport": "stop_position", "railway": "tram_stop", "ref": "818-1t", "tram": "yes", "wheelchair": "no"}}}, {"type": "Feature", "geometry": {"type": "Point", "coordinates": [19.9258888, 50.0496526]}, "properties": {"osm_id": "node/3074574715", "tags": {"bench": "yes", "bin": "yes", "bus": "yes", "departures_board": "timetable", "highway": "bus_stop", "lit": "yes", "name": "Bałuckiego 01", "network": "KMK", "network:wikidata": "Q11687034", "public_transport": "platform", "shelter": "no", "tactile_paving": "no"}}}, {"type": "Feature", "geometry": {"type": "Point", "coordinates": [19.9547739, 50.0466189]}, "properties": {"osm_id": "node/3118491163", "tags": {"bench": "yes", "bin": "yes", "bus": "yes", "departures_board": "timetable", "highway": "bus_stop", "lit": "yes", "name": "Plac Bohaterów Getta 04", "network": "Komunikacja Miejska w Krakowie", "network:short": "KMK", "network:wikidata": "Q11687034", "public_transport": "platform", "ref": "640-04", "shelter": "yes", "tactile_paving": "no"}}}, {"type": "Feature", "geometry": {"type": "Point", "coordinates": [19.9553778, 50.046432]}, "properties": {"osm_id": "node/3120751850", "tags": {"bench": "no", "bin": "yes", "bus": "yes", "departures_board": "timetable", "highway": "bus_stop", "lit": "yes", "name": "Plac Bohaterów Getta 03", "network": "Komunikacja Miejska w Krakowie", "network:short": "KMK", "network:wikidata": "Q11687034", "public_transport": "platform", "ref": "640-03", "shelter": "no", "tactile_paving": "no"}}}, {"type": "Feature", "geometry": {"type": "Point", "coordinates": [19.9475328, 50.0499607]}, "properties": {"osm_id": "node/3526822325", "tags": {"name": "Muzeum Inżynierii Miejskiej", "public_transport": "stop_position", "railway": "tram_stop", "tram": "yes"}}}, {"type": "Feature", "geometry": {"type": "Point", "coordinates": [19.950603, 50.0506255]}, "properties": {"osm_id": "node/3526833498", "tags": {"name": "Dajwór 01", "network": "Komunikacja Miejska w Krakowie", "network:short": "KMK", "network:wikidata": "Q1784404", "operator": "MPK Kraków", "operator:wikidata": "Q11780297", "public_transport": "stop_position", "railway": "tram_stop", "ref": "297-01", "tram": "yes"}}}, {"type": "Feature", "geometry": {"type": "Point", "coordinates": [19.9256824, 50.0593335]}, "properties": {"osm_id": "node/4977874050", "tags": {"bench": "yes", "bin": "yes", "bus": "yes", "check_date:bench": "2022-11-07", "departures_board": "timetable", "highway": "bus_stop", "lit": "yes", "name": "Muzeum Narodowe 03", "network": "KMK", "network:wikidata": "Q11687034", "public_transport": "platform", "shelter": "yes", "tactile_paving": "no"}}}, {"type": "Feature", "geometry": {"type": "Point", "coordinates": [19.9441643, 50.0672113]}, "properties": {"osm_id": "node/5019690566", "tags": {"bench": "no", "bin": "yes", "bus": "yes", "departures_board": "no", "highway": "bus_stop", "lit": "yes", "name": "Dworzec Główny Zachód", "network": "KMK", "network:wikidata": "Q11687034", "operator": "Zarząd Transportu Publicznego w Krakowie", "operator:wikidata": "Q110401950", "public_transport": "platform", "shelter": "no", "tactile_paving": "no"}}}, {"type": "Feature", "geometry": {"type": "Point", "coordinates": [19.9296498, 50.0483515]}, "properties": {"osm_id": "node/5060435650", "tags": {"bench": "yes", "bin": "yes", "bus": "yes", "departures_board": "timetable", "highway": "bus_stop", "lit": "yes", "name": "Rondo Grunwaldzkie 05", "network": "Komunikacja Miejska w Krakowie;Małopolskie Linie Dowozowe", "network:short": "KMK;MLD", "network:wikidata": "Q11687034;Q134701178", "public_transport": "platform", "ref": "501-05", "ref:kmal": "3535", "shelter": "yes", "tactile_paving": "no"}}}, {"type": "Feature", "geometry": {"type": "Point", "coordinates": [19.9530757, 50.0677146]}, "properties": {"osm_id": "node/5192424172", "tags": {"bench": "yes", "bin": "yes", "bus": "yes", "departures_board": "timetable", "highway": "bus_stop", "lit": "yes", "name": "Uniwersytet Ekonomiczny 03", "name:network:kmal": "Uniwersytet Ekonomiczny", "network": "Komunikacja Miejska w Krakowie;Małopolskie Linie Dowozowe", "network:short": "KMK;MLD", "network:wikidata": "Q11687034;Q134701178", "operator": "Zarząd Transportu Publicznego w Krakowie", "operator:wikidata": "Q110401950", "public_transport": "platform", "ref": "852-03", "ref:kmal": "7622", "shelter": "yes", "tactile_paving": "no", "url:kmal": "https://kolejemalopolskie.kiedyprzyjedzie.pl/#/stops/2605204:2703802/departures"}}}, {"type": "Feature", "geometry": {"type": "Point", "coordinates": [19.9324125, 50.0481805]}, "properties": {"osm_id": "node/5213174283", "tags": {"bench": "yes", "bin": "yes", "bus": "yes", "departures_board": "timetable", "highway": "bus_stop", "lit": "yes", "name": "Rondo Grunwaldzkie 03", "network": "KMK", "network:wikidata": "Q11687034", "public_transport": "platform", "ref": "501-03", "ref:kmal": "2136", "shelter": "yes", "tactile_paving": "no"}}}, {"type": "Feature", "geometry": {"type": "Point", "coordinates": [19.9327992, 50.0455631]}, "properties": {"osm_id": "node/5270846608", "tags": {"bench": "no", "bin": "yes", "bus": "yes", "highway": "bus_stop", "lit": "yes", "name": "Os. Podwawelskie", "network": "KMK", "network:wikidata": "Q11687034", "public_transport": "platform", "shelter": "no", "tactile_paving": "no"}}}, {"type": "Feature", "geometry": {"type": "Point", "coordinates": [19.9447296, 50.0672206]}, "properties": {"osm_id": "node/5275808820", "tags": {"bench": "yes", "bin": "yes", "bus": "yes", "departures_board": "timetable", "highway": "bus_stop", "lit": "yes", "name": "Dworzec Główny Zachód 09", "network": "KMK", "network:wikidata": "Q11687034", "operator": "Zarząd Transportu Publicznego w Krakowie", "operator:wikidata": "Q110401950", "public_transport": "platform", "ref": "760-09", "shelter": "yes", "tactile_paving": "no"}}}, {"type": "Feature", "geometry": {"type": "Point", "coordinates": [19.9331648, 50.0485406]}, "properties": {"osm_id": "node/7245406644", "tags": {"bench": "yes", "bin": "yes", "bus": "yes", "departures_board": "timetable", "highway": "bus_stop", "lit": "yes", "name": "Rondo Grunwaldzkie 06", "network": "KMK", "network:wikidata": "Q11687034", "public_transport": "platform", "shelter": "yes", "tactile_paving": "no"}}}, {"type": "Feature", "geometry": {"type": "Point", "coordinates": [19.9322522, 50.0497273]}, "properties": {"osm_id": "node/7245406645", "tags": {"bench": "yes", "bin": "yes", "bus": "yes", "covered": "no", "departures_board": "timetable", "highway": "bus_stop", "lit": "yes", "name": "Rondo Grunwaldzkie 04", "network": "KMK", "network:wikidata": "Q11687034", "passenger_information_display": "yes", "public_transport": "platform", "ref": "501-04", "ref:kmal": "2135", "shelter": "yes", "tactile_paving": "no", "wheelchair": "yes"}}}, {"type": "Feature", "geometry": {"type": "Point", "coordinates": [19.9269094, 50.0519059]}, "properties": {"osm_id": "node/8758577527", "tags": {"bench": "yes", "bin": "yes", "bus": "yes", "departures_board": "timetable", "highway": "bus_stop", "lit": "yes", "name": "Rynek Dębnicki 02", "network": "KMK", "network:wikidata": "Q11687034", "public_transport": "platform", "shelter": "yes", "tactile_paving": "yes"}}}, {"type": "Feature", "geometry": {"type": "Point", "coordinates": [19.9329042, 50.0461131]}, "properties": {"osm_id": "node/9968128869", "tags": {"bench": "yes", "bin": "yes", "bus": "yes", "departures_board": "timetable", "highway": "bus_stop", "lit": "yes", "local_ref": "4", "name": "Os. Podwawelskie 01", "network": "KMK", "network:wikidata": "Q11687034", "public_transport": "platform", "shelter": "yes", "tactile_paving": "no"}}}, {"type": "Feature", "geometry": {"type": "Point", "coordinates": [19.9453041, 50.0678223]}, "properties": {"osm_id": "node/9990569261", "tags": {"bench": "yes", "bin": "yes", "bus": "yes", "departures_board": "timetable", "highway": "bus_stop", "lit": "yes", "name": "Dworzec Główny Zachód 07", "network": "KMK", "network:wikidata": "Q11687034", "operator": "Zarząd Transportu Publicznego w Krakowie", "operator:wikidata": "Q110401950", "public_transport": "platform", "ref": "760-07", "shelter": "yes", "tactile_paving": "no"}}}, {"type": "Feature", "geometry": {"type": "Point", "coordinates": [19.9251676, 50.0586233]}, "properties": {"osm_id": "node/9992719512", "tags": {"bench": "yes", "bin": "yes", "bus": "yes", "departures_board": "timetable", "highway": "bus_stop", "lit": "yes", "name": "Muzeum Narodowe 04", "network": "KMK", "network:wikidata": "Q11687034", "public_transport": "platform", "ref": "825-04", "ref:kmal": "901", "shelter": "yes", "tactile_paving": "yes"}}}, {"type": "Feature", "geometry": {"type": "Point", "coordinates": [19.9327462, 50.0460244]}, "properties": {"osm_id": "node/9994910097", "tags": {"bench": "yes", "bin": "yes", "bus": "yes", "departures_board": "timetable", "highway": "bus_stop", "lit": "yes", "local_ref": "2", "name": "Os. Podwawelskie 01", "network": "KMK", "network:wikidata": "Q11687034", "public_transport": "platform", "shelter": "yes", "tactile_paving": "no"}}}, {"type": "Feature", "geometry": {"type": "Point", "coordinates": [19.926752, 50.0517141]}, "properties": {"osm_id": "node/9994910098", "tags": {"bench": "yes", "bin": "yes", "bus": "yes", "departures_board": "timetable", "highway": "bus_stop", "lit": "no", "name": "Rynek Dębnicki 01", "network": "KMK", "network:wikidata": "Q11687034", "public_transport": "platform", "shelter": "yes", "tactile_paving": "no"}}}, {"type": "Feature", "geometry": {"type": "Point", "coordinates": [19.9326632, 50.0459936]}, "properties": {"osm_id": "node/10006022258", "tags": {"bench": "yes", "bin": "yes", "bus": "yes", "departures_board": "timetable", "highway": "bus_stop", "lit": "yes", "local_ref": "1", "name": "Os. Podwawelskie 01", "network": "KMK", "network:wikidata": "Q11687034", "public_transport": "platform", "shelter": "yes", "tactile_paving": "no"}}}, {"type": "Feature", "geometry": {"type": "Point", "coordinates": [19.9296121, 50.0527634]}, "properties": {"osm_id": "node/10006022259", "tags": {"bench": "yes", "bin": "yes", "bus": "yes", "departures_board": "timetable", "highway": "bus_stop", "lit": "yes", "name": "Konopnickiej 02", "network": "KMK", "network:wikidata": "Q11687034", "public_transport": "platform", "ref": "500-02", "ref:kmal": "2819", "shelter": "yes", "tactile_paving": "yes"}}}, {"type": "Feature", "geometry": {"type": "Point", "coordinates": [19.9597164, 50.067163]}, "properties": {"osm_id": "node/10006022265", "tags": {"bench": "yes", "bin": "yes", "bus": "yes", "covered": "no", "departures_board": "timetable", "highway": "bus_stop", "lit": "yes", "name": "Rondo Mogilskie 06", "network": "Komunikacja Miejska w Krakowie", "network:short": "KMK", "network:wikidata": "Q11687034", "operator": "Zarząd Transportu Publicznego w Krakowie", "operator:wikidata": "Q110401950", "passenger_information_display": "no", "public_transport": "platform", "ref": "802-06", "shelter": "yes", "tactile_paving": "yes", "wheelchair": "yes"}}}, {"type": "Feature", "geometry": {"type": "Point", "coordinates": [19.9575899, 50.0656688]}, "properties": {"osm_id": "node/10006022286", "tags": {"bench": "yes", "bin": "yes", "bus": "yes", "covered": "no", "departures_board": "timetable", "highway": "bus_stop", "lit": "no", "name": "Rondo Mogilskie Opera 02", "network": "Komunikacja Miejska w Krakowie", "network:short": "KMK", "network:wikidata": "Q11687034", "operator": "Zarząd Transportu Publicznego w Krakowie", "operator:wikidata": "Q110401950", "passenger_information_display": "no", "public_transport": "platform", "ref": "921-02", "shelter": "yes", "tactile_paving": "yes", "website": "https://mpk.krakow.pl/", "wheelchair": "yes"}}}, {"type": "Feature", "geometry": {"type": "Point", "coordinates": [19.9403997, 50.0662524]}, "properties": {"osm_id": "node/10006022289", "tags": {"bench": "yes", "bin": "yes", "bus": "yes", "departures_board": "timetable", "highway": "bus_stop", "lit": "yes", "name": "Stary Kleparz 05", "network": "KMK", "network:wikidata": "Q11687034", "operator": "Zarząd Transportu Publicznego w Krakowie", "operator:wikidata": "Q110401950", "passenger_information_display": "yes", "public_transport": "platform", "ref": "833-05", "shelter": "yes", "tactile_paving": "yes", "website": "https://mpk.krakow.pl/", "wheelchair": "yes"}}}, {"type": "Feature", "geometry": {"type": "Point", "coordinates": [19.9291721, 50.052838]}, "properties": {"osm_id": "node/10006022290", "tags": {"bench": "yes", "bin": "yes", "bus": "yes", "departures_board": "timetable", "highway": "bus_stop", "lit": "yes", "name": "Konopnickiej 01", "network": "KMK", "network:wikidata": "Q11687034", "public_transport": "platform", "ref": "500-01", "ref:kmal": "2820", "shelter": "yes", "tactile_paving": "yes"}}}, {"type": "Feature", "geometry": {"type": "Point", "coordinates": [19.9747231, 50.0453278]}, "properties": {"osm_id": "node/10008227562", "tags": {"bench": "yes", "bin": "yes", "bus": "yes", "departures_board": "timetable", "highway": "bus_stop", "name": "Kuklińskiego 03", "network": "KMK", "network:wikidata": "Q11687034", "public_transport": "platform", "shelter": "yes", "tactile_paving": "no"}}}, {"type": "Feature", "geometry": {"type": "Point", "coordinates": [19.9259254, 50.0689016]}, "properties": {"osm_id": "node/10020383065", "tags": {"bench": "yes", "bin": "yes", "bus": "yes", "departures_board": "timetable", "highway": "bus_stop", "lit": "yes", "name": "Plac Inwalidów 04", "network": "KMK", "network:wikidata": "Q11687034", "public_transport": "platform", "ref": "829-04", "ref:kmal": "899", "shelter": "yes", "tactile_paving": "yes"}}}, {"type": "Feature", "geometry": {"type": "Point", "coordinates": [19.9270021, 50.0694006]}, "properties": {"osm_id": "node/10020383075", "tags": {"bench": "yes", "bin": "yes", "bus": "yes", "departures_board": "timetable", "highway": "bus_stop", "lit": "yes", "name": "Plac Inwalidów 03", "network": "KMK", "network:wikidata": "Q11687034", "public_transport": "platform", "ref": "829-03", "ref:kmal": "896", "shelter": "yes", "tactile_paving": "yes"}}}, {"type": "Feature", "geometry": {"type": "Point", "coordinates": [19.9251695, 50.0598438]}, "properties": {"osm_id": "node/10024407951", "tags": {"bench": "yes", "bin": "yes", "bus": "yes", "departures_board": "timetable", "highway": "bus_stop", "lit": "yes", "name": "Muzeum Narodowe 05", "network": "KMK", "network:wikidata": "Q11687034", "public_transport": "platform", "ref": "825-05", "ref:kmal": "894", "shelter": "yes", "tactile_paving": "no"}}}, {"type": "Feature", "geometry": {"type": "Point", "coordinates": [19.9610935, 50.0691032]}, "properties": {"osm_id": "node/10026670831", "tags": {"bench": "yes", "bin": "yes", "bus": "yes", "departures_board": "timetable", "highway": "bus_stop", "lit": "yes", "name": "Brodowicza 02", "network": "KMK", "network:wikidata": "Q11687034", "public_transport": "platform", "shelter": "yes", "tactile_paving": "no"}}}, {"type": "Feature", "geometry": {"type": "Point", "coordinates": [19.9432462, 50.0672151]}, "properties": {"osm_id": "node/10026803670", "tags": {"bench": "yes", "bin": "yes", "bus": "yes", "departures_board": "timetable", "highway": "bus_stop", "lit": "yes", "name": "Dworzec Główny Zachód", "network": "KMK", "network:wikidata": "Q11687034", "operator": "Zarząd Transportu Publicznego w Krakowie", "operator:wikidata": "Q110401950", "public_transport": "platform", "shelter": "yes", "tactile_paving": "no"}}}, {"type": "Feature", "geometry": {"type": "Point", "coordinates": [19.9578913, 50.0670696]}, "properties": {"osm_id": "node/10041215210", "tags": {"bench": "yes", "bin": "yes", "bus": "yes", "covered": "no", "departures_board": "timetable", "highway": "bus_stop", "lit": "yes", "name": "Rondo Mogilskie 08", "name:network:kmal": "Rondo Mogilskie", "network": "Komunikacja Miejska w Krakowie;Małopolskie Linie Dowozowe", "network:short": "KMK;MLD", "network:wikidata": "Q11687034;Q134701178", "operator": "Zarząd Transportu Publicznego w Krakowie", "operator:wikidata": "Q110401950", "passenger_information_display": "no", "public_transport": "platform", "ref": "802-08", "ref:kmal": "6545", "shelter": "yes", "tactile_paving": "yes", "url:kmal": "https://kolejemalopolskie.kiedyprzyjedzie.pl/#/stops/2605198:2703811/departures", "wheelchair": "yes"}}}, {"type": "Feature", "geometry": {"type": "Point", "coordinates": [19.9517505, 50.0683037]}, "properties": {"osm_id": "node/10041215211", "tags": {"bench": "yes", "bin": "yes", "bus": "yes", "departures_board": "timetable", "highway": "bus_stop", "lit": "yes", "name": "Uniwersytet Ekonomiczny 04", "name:network:kmal": "Uniwersytet Ekonomiczny", "network": "Komunikacja Miejska w Krakowie;Małopolskie Linie Dowozowe", "network:short": "KMK;MLD", "network:wikidata": "Q11687034;Q134701178", "operator": "Zarząd Transportu Publicznego w Krakowie", "operator:wikidata": "Q110401950", "public_transport": "platform", "ref": "852-04", "ref:kmal": "7621", "shelter": "yes", "tactile_paving": "no", "url:kmal": "https://kolejemalopolskie.kiedyprzyjedzie.pl/#/stops/2605204:2703801/departures"}}}, {"type": "Feature", "geometry": {"type": "Point", "coordinates": [19.9493247, 50.0685968]}, "properties": {"osm_id": "node/10041215212", "tags": {"bench": "yes", "bin": "yes", "bus": "yes", "departures_board": "timetable", "highway": "bus_stop", "lit": "yes", "local_ref": "5", "name": "Dworzec Główny Wschód 01", "network": "Komunikacja Miejska w Krakowie", "network:short": "KMK", "network:wikidata": "Q11687034", "operator": "Miejskie Przedsiębiorstwo Komunikacyjne w Krakowie;Mobilis", "operator:short": "MPK Kraków", "operator:wikidata": "Q11780297;Q11784310", "public_transport": "platform", "ref": "461-01", "shelter": "yes", "tactile_paving": "no"}}}, {"type": "Feature", "geometry": {"type": "Point", "coordinates": [19.9590203, 50.0647369]}, "properties": {"osm_id": "node/10042271625", "tags": {"bench": "yes", "bin": "yes", "bus": "yes", "covered": "no", "departures_board": "timetable", "highway": "bus_stop", "lit": "yes", "name": "Rondo Mogilskie 09", "network": "Komunikacja Miejska w Krakowie", "network:short": "KMK", "network:wikidata": "Q11687034", "operator": "Zarząd Transportu Publicznego w Krakowie", "operator:wikidata": "Q110401950", "passenger_information_display": "no", "public_transport": "platform", "ref": "802-09", "shelter": "yes", "tactile_paving": "yes", "wheelchair": "yes"}}}, {"type": "Feature", "geometry": {"type": "Point", "coordinates": [19.9457298, 50.0574303]}, "properties": {"osm_id": "node/10042271631", "tags": {"bench": "yes", "bin": "yes", "bus": "yes", "departures_board": "timetable", "highway": "bus_stop", "lit": "yes", "name": "Starowiślna 08", "network": "Komunikacja Miejska w Krakowie", "network:short": "KMK", "network:wikidata": "Q11687034", "operator": "Zarząd Transportu Publicznego w Krakowie", "operator:wikidata": "Q110401950", "public_transport": "platform", "ref": "807-08", "shelter": "yes", "tactile_paving": "no"}}}, {"type": "Feature", "geometry": {"type": "Point", "coordinates": [19.9460402, 50.0567055]}, "properties": {"osm_id": "node/10042271632", "tags": {"bench": "yes", "bin": "yes", "bus": "yes", "covered": "no", "departures_board": "timetable", "highway": "bus_stop", "lit": "no", "name": "Starowiślna 07", "network": "Komunikacja Miejska w Krakowie", "network:short": "KMK", "network:wikidata": "Q11687034", "operator": "Zarząd Transportu Publicznego w Krakowie", "operator:wikidata": "Q110401950", "passenger_information_display": "no", "public_transport": "platform", "ref": "807-07", "shelter": "no", "tactile_paving": "no", "wheelchair": "yes"}}}, {"type": "Feature", "geometry": {"type": "Point", "coordinates": [19.9492863, 50.0685311]}, "properties": {"osm_id": "node/10042488662", "tags": {"bench": "yes", "bin": "yes", "bus": "yes", "covered": "no", "departures_board": "timetable", "highway": "bus_stop", "lit": "yes", "local_ref": "3", "name": "Dworzec Główny Wschód 01", "network": "Komunikacja Miejska w Krakowie", "network:short": "KMK", "network:wikidata": "Q11687034", "operator": "Miejskie Przedsiębiorstwo Komunikacyjne w Krakowie;Mobilis", "operator:short": "MPK Kraków", "operator:wikidata": "Q11780297;Q11784310", "passenger_information_display": "no", "public_transport": "platform", "ref": "461-01", "shelter": "no", "tactile_paving": "no"}}}, {"type": "Feature", "geometry": {"type": "Point", "coordinates": [19.9732333, 50.0456454]}, "properties": {"osm_id": "node/10044763669", "tags": {"bench": "yes", "bin": "yes", "bus": "yes", "departures_board": "timetable", "highway": "bus_stop", "lit": "yes", "name": "Kuklińskiego 04", "network": "KMK", "network:wikidata": "Q11687034", "public_transport": "platform", "shelter": "yes", "tactile_paving": "no"}}}, {"type": "Feature", "geometry": {"type": "Point", "coordinates": [19.9676891, 50.0491728]}, "properties": {"osm_id": "node/10044763670", "tags": {"bench": "yes", "bin": "yes", "bus": "yes", "departures_board": "timetable", "highway": "bus_stop", "lit": "yes", "name": "Klimeckiego 05", "network": "KMK", "network:wikidata": "Q11687034", "public_transport": "platform", "ref": "294-05", "shelter": "yes", "tactile_paving": "yes"}}}, {"type": "Feature", "geometry": {"type": "Point", "coordinates": [19.962231, 50.0510772]}, "properties": {"osm_id": "node/10044763671", "tags": {"bench": "yes", "bin": "yes", "bus": "yes", "departures_board": "timetable", "highway": "bus_stop", "lit": "no", "name": "Most Kotlarski 01", "network": "KMK", "network:wikidata": "Q11687034", "public_transport": "platform", "shelter": "yes", "tactile_paving": "no"}}}, {"type": "Feature", "geometry": {"type": "Point", "coordinates": [19.9383304, 50.0591619]}, "properties": {"osm_id": "node/10044763673", "tags": {"bench": "yes", "bin": "yes", "bus": "yes", "departures_board": "timetable", "highway": "bus_stop", "lit": "yes", "name": "Plac Wszystkich Świętych 01", "network": "KMK", "network:wikidata": "Q11687034", "public_transport": "platform", "shelter": "yes", "tactile_paving": "no"}}}, {"type": "Feature", "geometry": {"type": "Point", "coordinates": [19.9341322, 50.0591543]}, "properties": {"osm_id": "node/10044763674", "tags": {"bench": "yes", "bin": "yes", "bus": "yes", "departures_board": "timetable", "highway": "bus_stop", "lit": "yes", "name": "Filharmonia 01", "network": "KMK", "network:wikidata": "Q11687034", "public_transport": "platform", "shelter": "yes", "tactile_paving": "yes"}}}, {"type": "Feature", "geometry": {"type": "Point", "coordinates": [19.968381, 50.0483303]}, "properties": {"osm_id": "node/10044763684", "tags": {"bench": "yes", "bin": "yes", "bus": "yes", "departures_board": "timetable", "highway": "bus_stop", "lit": "yes", "name": "Klimeckiego 03", "network": "KMK", "network:wikidata": "Q11687034", "public_transport": "platform", "ref": "294-03", "shelter": "yes", "tactile_paving": "yes"}}}, {"type": "Feature", "geometry": {"type": "Point", "coordinates": [19.9407963, 50.0514594]}, "properties": {"osm_id": "node/10054127707", "tags": {"bench": "yes", "bin": "yes", "bus": "yes", "departures_board": "timetable", "highway": "bus_stop", "lit": "yes", "name": "Stradom 08", "network": "KMK", "network:wikidata": "Q11687034", "operator": "Zarząd Transportu Publicznego w Krakowie", "operator:wikidata": "Q110401950", "public_transport": "platform", "ref": "819-08", "shelter": "yes", "tactile_paving": "yes"}}}, {"type": "Feature", "geometry": {"type": "Point", "coordinates": [19.9422964, 50.0520015]}, "properties": {"osm_id": "node/10054127713", "tags": {"bench": "no", "bin": "yes", "bus": "yes", "departures_board": "timetable", "highway": "bus_stop", "lit": "yes", "name": "Stradom 05", "network": "KMK", "network:wikidata": "Q11687034", "operator": "Zarząd Transportu Publicznego w Krakowie", "operator:wikidata": "Q110401950", "public_transport": "platform", "ref": "819-05", "shelter": "no", "tactile_paving": "yes"}}}, {"type": "Feature", "geometry": {"type": "Point", "coordinates": [19.9666866, 50.0601525]}, "properties": {"osm_id": "node/10056563078", "tags": {"bench": "no", "bin": "yes", "bus": "yes", "departures_board": "timetable", "highway": "bus_stop", "lit": "yes", "name": "Nullo 04", "network": "KMK", "network:wikidata": "Q11687034", "public_transport": "platform", "ref": "811-04", "shelter": "no", "tactile_paving": "no"}}}, {"type": "Feature", "geometry": {"type": "Point", "coordinates": [19.9678791, 50.0601508]}, "properties": {"osm_id": "node/10056563083", "tags": {"bench": "yes", "bin": "yes", "bus": "yes", "departures_board": "timetable", "highway": "bus_stop", "lit": "yes", "name": "Nullo 03", "network": "KMK", "network:wikidata": "Q11687034", "public_transport": "platform", "ref": "811-03", "shelter": "yes", "tactile_paving": "no"}}}, {"type": "Feature", "geometry": {"type": "Point", "coordinates": [19.9330216, 50.0592533]}, "properties": {"osm_id": "node/10059214621", "tags": {"bench": "yes", "bin": "yes", "bus": "yes", "departures_board": "timetable", "highway": "bus_stop", "lit": "yes", "name": "Filharmonia 03", "network": "KMK", "network:wikidata": "Q11687034", "public_transport": "platform", "shelter": "yes", "tactile_paving": "yes"}}}, {"type": "Feature", "geometry": {"type": "Point", "coordinates": [19.9373071, 50.0590701]}, "properties": {"osm_id": "node/10059214623", "tags": {"bench": "yes", "bin": "yes", "bus": "yes", "departures_board": "timetable", "highway": "bus_stop", "lit": "yes", "name": "Plac Wszystkich Świętych 02", "network": "KMK", "network:wikidata": "Q11687034", "public_transport": "platform", "shelter": "yes", "tactile_paving": "no"}}}, {"type": "Feature", "geometry": {"type": "Point", "coordinates": [19.9493302, 50.0686849]}, "properties": {"osm_id": "node/10060441493", "tags": {"bench": "yes", "bin": "yes", "bus": "yes", "covered": "no", "departures_board": "timetable", "highway": "bus_stop", "lit": "yes", "local_ref": "6", "name": "Dworzec Główny Wschód 01", "network": "Komunikacja Miejska w Krakowie", "network:short": "KMK", "network:wikidata": "Q11687034", "operator": "Miejskie Przedsiębiorstwo Komunikacyjne w Krakowie;Mobilis", "operator:short": "MPK Kraków", "operator:wikidata": "Q11780297;Q11784310", "passenger_information_display": "no", "public_transport": "platform", "ref": "461-01", "shelter": "yes", "tactile_paving": "no"}}}, {"type": "Feature", "geometry": {"type": "Point", "coordinates": [19.9493674, 50.0684759]}, "properties": {"osm_id": "node/10060441495", "tags": {"bench": "yes", "bin": "yes", "bus": "yes", "covered": "no", "departures_board": "no", "highway": "bus_stop", "lit": "yes", "local_ref": "1", "name": "Dworzec Główny Wschód 01", "network": "Komunikacja Miejska w Krakowie", "network:short": "KMK", "network:wikidata": "Q11687034", "operator": "Miejskie Przedsiębiorstwo Komunikacyjne w Krakowie;Mobilis", "operator:short": "MPK Kraków", "operator:wikidata": "Q11780297;Q11784310", "passenger_information_display": "no", "public_transport": "platform", "ref": "461-01", "shelter": "no", "tactile_paving": "no"}}}, {"type": "Feature", "geometry": {"type": "Point", "coordinates": [19.9328273, 50.0460624]}, "properties": {"osm_id": "node/10151319114", "tags": {"bench": "yes", "bin": "yes", "bus": "yes", "departures_board": "timetable", "highway": "bus_stop", "lit": "yes", "local_ref": "3", "name": "Os. Podwawelskie 01", "network": "KMK", "network:wikidata": "Q11687034", "public_transport": "platform", "shelter": "yes", "tactile_paving": "no"}}}, {"type": "Feature", "geometry": {"type": "Point", "coordinates": [19.9419438, 50.0524986]}, "properties": {"osm_id": "node/10206927194", "tags": {"bench": "no", "bin": "yes", "bus": "yes", "departures_board": "timetable", "highway": "bus_stop", "lit": "yes", "name": "Stradom 06", "network": "KMK", "network:wikidata": "Q11687034", "operator": "Zarząd Transportu Publicznego w Krakowie", "operator:wikidata": "Q110401950", "public_transport": "platform", "ref": "819-06", "shelter": "no", "tactile_paving": "no"}}}, {"type": "Feature", "geometry": {"type": "Point", "coordinates": [19.9316732, 50.0603842]}, "properties": {"osm_id": "node/11271425380", "tags": {"name": "UJ / AST 02", "network": "Komunikacja Miejska w Krakowie", "network:wikidata": "Q1784404", "operator": "MPK Kraków", "operator:wikidata": "Q11780297", "public_transport": "stop_position", "railway": "tram_stop", "ref": "824-02", "tram": "yes", "wheelchair": "no"}}}, {"type": "Feature", "geometry": {"type": "Point", "coordinates": [19.9329853, 50.0461547]}, "properties": {"osm_id": "node/11809091353", "tags": {"bench": "yes", "bin": "yes", "bus": "yes", "departures_board": "timetable", "highway": "bus_stop", "lit": "yes", "local_ref": "5", "name": "Os. Podwawelskie 01", "network": "KMK", "network:wikidata": "Q11687034", "public_transport": "platform", "shelter": "yes", "tactile_paving": "no"}}}, {"type": "Feature", "geometry": {"type": "Point", "coordinates": [19.9492108, 50.0679352]}, "properties": {"osm_id": "node/12089246387", "tags": {"bench": "yes", "bus": "yes", "highway": "bus_stop", "local_ref": "D1", "name": "Kraków MDA (D1)", "operator": "MDA", "public_transport": "platform", "shelter": "yes"}}}, {"type": "Feature", "geometry": {"type": "Point", "coordinates": [19.9492137, 50.0678277]}, "properties": {"osm_id": "node/12089246388", "tags": {"bench": "yes", "bus": "yes", "highway": "bus_stop", "lit": "yes", "local_ref": "D2", "name": "Kraków MDA (D2)", "operator": "MDA", "public_transport": "platform", "shelter": "yes"}}}, {"type": "Feature", "geometry": {"type": "Point", "coordinates": [19.9492158, 50.0677349]}, "properties": {"osm_id": "node/12089246389", "tags": {"bench": "yes", "bus": "yes", "highway": "bus_stop", "lit": "yes", "local_ref": "D3", "name": "Kraków MDA (D3)", "operator": "MDA", "public_transport": "platform", "shelter": "yes"}}}, {"type": "Feature", "geometry": {"type": "Point", "coordinates": [19.9492244, 50.0676439]}, "properties": {"osm_id": "node/12089246390", "tags": {"bench": "yes", "bus": "yes", "highway": "bus_stop", "lit": "yes", "local_ref": "D4", "name": "Kraków MDA (D4)", "operator": "MDA", "public_transport": "platform", "shelter": "yes"}}}, {"type": "Feature", "geometry": {"type": "Point", "coordinates": [19.9492251, 50.0675557]}, "properties": {"osm_id": "node/12089246391", "tags": {"bench": "yes", "bus": "yes", "highway": "bus_stop", "local_ref": "D5", "name": "Kraków MDA (D5)", "operator": "MDA", "public_transport": "platform", "shelter": "yes"}}}, {"type": "Feature", "geometry": {"type": "Point", "coordinates": [19.9492022, 50.0674509]}, "properties": {"osm_id": "node/12089246392", "tags": {"bench": "yes", "bus": "yes", "highway": "bus_stop", "local_ref": "D6", "name": "Kraków MDA (D6)", "operator": "MDA", "public_transport": "platform", "shelter": "yes"}}}, {"type": "Feature", "geometry": {"type": "Point", "coordinates": [19.9493883, 50.0675506]}, "properties": {"osm_id": "node/12089246393", "tags": {"bench": "yes", "bus": "yes", "highway": "bus_stop", "local_ref": "D7", "name": "Kraków MDA (D7)", "operator": "MDA", "public_transport": "platform", "shelter": "yes"}}}, {"type": "Feature", "geometry": {"type": "Point", "coordinates": [19.9493869, 50.0676476]}, "properties": {"osm_id": "node/12089246394", "tags": {"bench": "yes", "bus": "yes", "highway": "bus_stop", "local_ref": "D8", "name": "Kraków MDA (D8)", "operator": "MDA", "public_transport": "platform", "shelter": "yes"}}}, {"type": "Feature", "geometry": {"type": "Point", "coordinates": [19.9493826, 50.0677418]}, "properties": {"osm_id": "node/12089246395", "tags": {"bench": "yes", "bus": "yes", "highway": "bus_stop", "local_ref": "D9", "name": "Kraków MDA (D9)", "operator": "MDA", "public_transport": "platform", "shelter": "yes"}}}, {"type": "Feature", "geometry": {"type": "Point", "coordinates": [19.9493776, 50.067932]}, "properties": {"osm_id": "node/12089246396", "tags": {"bench": "yes", "bus": "yes", "highway": "bus_stop", "local_ref": "D10", "name": "Kraków MDA (D10)", "operator": "MDA", "public_transport": "platform", "shelter": "yes"}}}, {"type": "Feature", "geometry": {"type": "Point", "coordinates": [19.9493783, 50.0681011]}, "properties": {"osm_id": "node/12089246397", "tags": {"bus": "yes", "highway": "bus_stop", "local_ref": "D11", "name": "Kraków MDA (D11)", "operator": "MDA", "public_transport": "platform", "shelter": "yes"}}}, {"type": "Feature", "geometry": {"type": "Point", "coordinates": [19.9493826, 50.0681687]}, "properties": {"osm_id": "node/12089246398", "tags": {"bus": "yes", "highway": "bus_stop", "local_ref": "D12", "name": "Kraków MDA (D12)", "operator": "MDA", "public_transport": "platform", "shelter": "yes"}}}, {"type": "Feature", "geometry": {"type": "Point", "coordinates": [19.9496639, 50.0674914]}, "properties": {"osm_id": "node/12089246399", "tags": {"bench": "yes", "bin": "no", "bus": "yes", "highway": "bus_stop", "local_ref": "D13", "name": "Kraków MDA (D13)", "operator": "MDA", "public_transport": "platform", "shelter": "yes"}}}, {"type": "Feature", "geometry": {"type": "Point", "coordinates": [19.9496589, 50.0675854]}, "properties": {"osm_id": "node/12089246400", "tags": {"bench": "yes", "bin": "no", "bus": "yes", "highway": "bus_stop", "local_ref": "D14", "name": "Kraków MDA (D14)", "operator": "MDA", "public_transport": "platform", "shelter": "yes"}}}, {"type": "Feature", "geometry": {"type": "Point", "coordinates": [19.9496582, 50.0676836]}, "properties": {"osm_id": "node/12089246401", "tags": {"bench": "yes", "bin": "no", "bus": "yes", "departures_board": "timetable", "highway": "bus_stop", "lit": "yes", "local_ref": "D15", "name": "Kraków MDA (D15)", "name:network:kmal": "Kraków MDA", "network": "Małopolskie Linie Dowozowe", "network:short": "MLD", "network:wikidata": "Q134701178", "operator": "MDA", "public_transport": "platform", "ref:kmal": "656", "shelter": "yes", "tactile_paving": "no", "url:kmal": "https://kolejemalopolskie.kiedyprzyjedzie.pl/#/stops/771543:824492/departures"}}}, {"type": "Feature", "geometry": {"type": "Point", "coordinates": [19.9496539, 50.0679435]}, "properties": {"osm_id": "node/12089246402", "tags": {"bench": "yes", "bin": "no", "bus": "yes", "departures_board": "timetable", "highway": "bus_stop", "lit": "yes", "local_ref": "D16", "name": "Kraków MDA (D16)", "name:network:kmal": "Kraków MDA", "network": "Małopolskie Linie Dowozowe", "network:short": "MLD", "network:wikidata": "Q134701178", "operator": "MDA", "public_transport": "platform", "ref:kmal": "656", "shelter": "yes", "tactile_paving": "no", "url:kmal": "https://kolejemalopolskie.kiedyprzyjedzie.pl/#/stops/771543:824492/departures"}}}, {"type": "Feature", "geometry": {"type": "Point", "coordinates": [19.9496432, 50.0680322]}, "properties": {"osm_id": "node/12089246403", "tags": {"bench": "yes", "bin": "no", "bus": "yes", "departures_board": "timetable", "highway": "bus_stop", "lit": "yes", "local_ref": "D17", "name": "Kraków MDA (D17)", "name:network:kmal": "Kraków MDA", "network": "Małopolskie Linie Dowozowe", "network:short": "MLD", "network:wikidata": "Q134701178", "operator": "MDA", "public_transport": "platform", "ref:kmal": "656", "shelter": "yes", "tactile_paving": "no", "url:kmal": "https://kolejemalopolskie.kiedyprzyjedzie.pl/#/stops/771543:824492/departures"}}}, {"type": "Feature", "geometry": {"type": "Point", "coordinates": [19.949636, 50.0681333]}, "properties": {"osm_id": "node/12089246404", "tags": {"bench": "yes", "bin": "no", "bus": "yes", "highway": "bus_stop", "lit": "yes", "local_ref": "D18", "name": "Kraków MDA (D18)", "operator": "MDA", "public_transport": "platform", "shelter": "yes", "tactile_paving": "no"}}}, {"type": "Feature", "geometry": {"type": "Point", "coordinates": [19.9490687, 50.0676253]}, "properties": {"osm_id": "node/12089246405", "tags": {"bus": "yes", "highway": "bus_stop", "local_ref": "D19", "name": "Kraków MDA (D19)", "operator": "MDA", "public_transport": "platform", "shelter": "yes"}}}, {"type": "Feature", "geometry": {"type": "Point", "coordinates": [19.9490744, 50.067498]}, "properties": {"osm_id": "node/12089246406", "tags": {"bus": "yes", "highway": "bus_stop", "local_ref": "D20", "name": "Kraków MDA (D20)", "operator": "MDA", "public_transport": "platform", "shelter": "yes"}}}, {"type": "Feature", "geometry": {"type": "Point", "coordinates": [19.9491959, 50.0680463]}, "properties": {"osm_id": "node/12089246407", "tags": {"bus": "yes", "highway": "bus_stop", "lit": "yes", "local_ref": "G1", "name": "Kraków MDA (G1)", "operator": "MDA", "public_transport": "platform", "shelter": "yes", "tactile_paving": "no"}}}, {"type": "Feature", "geometry": {"type": "Point", "coordinates": [19.9491942, 50.0679633]}, "properties": {"osm_id": "node/12089246408", "tags": {"bench": "yes", "bin": "yes", "bus": "yes", "highway": "bus_stop", "lit": "yes", "local_ref": "G2", "name": "Kraków MDA (G2)", "operator": "MDA", "public_transport": "platform", "shelter": "yes", "tactile_paving": "no"}}}, {"type": "Feature", "geometry": {"type": "Point", "coordinates": [19.9491956, 50.0678599]}, "properties": {"osm_id": "node/12089246409", "tags": {"bench": "no", "bus": "yes", "highway": "bus_stop", "lit": "yes", "local_ref": "G3", "name": "Kraków MDA (G3)", "operator": "MDA", "public_transport": "platform", "shelter": "yes", "tactile_paving": "no"}}}, {"type": "Feature", "geometry": {"type": "Point", "coordinates": [19.9491963, 50.067771]}, "properties": {"osm_id": "node/12089246410", "tags": {"bench": "no", "bus": "yes", "highway": "bus_stop", "lit": "yes", "local_ref": "G4", "name": "Kraków MDA (G4)", "operator": "MDA", "public_transport": "platform", "shelter": "yes"}}}, {"type": "Feature", "geometry": {"type": "Point", "coordinates": [19.9492028, 50.0676798]}, "properties": {"osm_id": "node/12089246411", "tags": {"bench": "no", "bus": "yes", "highway": "bus_stop", "lit": "yes", "local_ref": "G5", "name": "Kraków MDA (G5)", "operator": "MDA", "public_transport": "platform", "shelter": "yes"}}}, {"type": "Feature", "geometry": {"type": "Point", "coordinates": [19.9491999, 50.0675929]}, "properties": {"osm_id": "node/12089246412", "tags": {"bus": "yes", "highway": "bus_stop", "lit": "yes", "local_ref": "G6", "name": "Kraków MDA (G6)", "operator": "MDA", "public_transport": "platform", "shelter": "yes"}}}, {"type": "Feature", "geometry": {"type": "Point", "coordinates": [19.9492021, 50.0675139]}, "properties": {"osm_id": "node/12089246413", "tags": {"bus": "yes", "highway": "bus_stop", "lit": "yes", "local_ref": "G7", "name": "Kraków MDA (G7)", "operator": "MDA", "public_transport": "platform", "shelter": "yes", "tactile_paving": "no"}}}, {"type": "Feature", "geometry": {"type": "Point", "coordinates": [19.9493696, 50.0676141]}, "properties": {"osm_id": "node/12089246414", "tags": {"bus": "yes", "highway": "bus_stop", "local_ref": "G8", "name": "Kraków MDA (G8)", "operator": "MDA", "public_transport": "platform", "shelter": "yes"}}}, {"type": "Feature", "geometry": {"type": "Point", "coordinates": [19.9493617, 50.0677106]}, "properties": {"osm_id": "node/12089246415", "tags": {"bench": "no", "bus": "yes", "highway": "bus_stop", "local_ref": "G9", "name": "Kraków MDA (G9)", "network": "Europol Połeć;Trans-Usługi Połeć", "network:short": "Połeć", "operator": "MDA", "public_transport": "platform", "shelter": "yes"}}}, {"type": "Feature", "geometry": {"type": "Point", "coordinates": [19.9493567, 50.0677887]}, "properties": {"osm_id": "node/12089246416", "tags": {"bench": "no", "bus": "yes", "highway": "bus_stop", "local_ref": "G10", "name": "Kraków MDA (G10)", "operator": "MDA", "public_transport": "platform", "shelter": "yes"}}}, {"type": "Feature", "geometry": {"type": "Point", "coordinates": [19.9493517, 50.0678792]}, "properties": {"osm_id": "node/12089246417", "tags": {"bench": "no", "bus": "yes", "highway": "bus_stop", "local_ref": "G11", "name": "Kraków MDA (G11)", "operator": "MDA", "public_transport": "platform", "shelter": "yes"}}}, {"type": "Feature", "geometry": {"type": "Point", "coordinates": [19.9495686, 50.0679931]}, "properties": {"osm_id": "node/12089246418", "tags": {"bus": "yes", "highway": "bus_stop", "local_ref": "G12", "name": "Kraków MDA (G12)", "operator": "MDA", "public_transport": "platform", "shelter": "no"}}}, {"type": "Feature", "geometry": {"type": "Point", "coordinates": [19.9495765, 50.0678277]}, "properties": {"osm_id": "node/12089246419", "tags": {"bus": "yes", "highway": "bus_stop", "local_ref": "G13", "name": "Kraków MDA (G13)", "operator": "MDA", "public_transport": "platform", "ref:kmal": "656", "shelter": "no"}}}, {"type": "Feature", "geometry": {"type": "Point", "coordinates": [19.9493002, 50.0673663]}, "properties": {"osm_id": "node/12089246420", "tags": {"bus": "yes", "highway": "bus_stop", "local_ref": "G14", "name": "Kraków MDA (G14)", "operator": "MDA", "public_transport": "platform", "shelter": "yes"}}}, {"type": "Feature", "geometry": {"type": "Point", "coordinates": [19.9493814, 50.0673436]}, "properties": {"osm_id": "node/12089246421", "tags": {"bus": "yes", "highway": "bus_stop", "local_ref": "G15", "name": "Kraków MDA (G15)", "operator": "MDA", "public_transport": "platform", "shelter": "yes"}}}, {"type": "Feature", "geometry": {"type": "Point", "coordinates": [19.9491869, 50.0673426]}, "properties": {"osm_id": "node/12089246422", "tags": {"bus": "yes", "highway": "bus_stop", "local_ref": "G16", "name": "Kraków MDA (G16)", "operator": "MDA", "public_transport": "platform", "shelter": "yes"}}}, {"type": "Feature", "geometry": {"type": "Point", "coordinates": [19.9489477, 50.0674486]}, "properties": {"osm_id": "node/12089246423", "tags": {"bus": "yes", "highway": "bus_stop", "local_ref": "G17", "name": "Kraków MDA (G17)", "operator": "MDA", "public_transport": "platform", "shelter": "yes"}}}, {"type": "Feature", "geometry": {"type": "Point", "coordinates": [19.9489464, 50.0675218]}, "properties": {"osm_id": "node/12089246424", "tags": {"bus": "yes", "highway": "bus_stop", "local_ref": "G18", "name": "Kraków MDA (G18)", "operator": "MDA", "public_transport": "platform", "shelter": "yes"}}}, {"type": "Feature", "geometry": {"type": "Point", "coordinates": [19.9489409, 50.0675982]}, "properties": {"osm_id": "node/12089246425", "tags": {"bus": "yes", "highway": "bus_stop", "local_ref": "G19", "name": "Kraków MDA (G19)", "operator": "MDA", "public_transport": "platform", "shelter": "yes"}}}, {"type": "Feature", "geometry": {"type": "Point", "coordinates": [19.9496906, 50.0686607]}, "properties": {"osm_id": "node/12270717877", "tags": {"bench": "no", "bin": "no", "bus": "yes", "covered": "no", "departures_board": "timetable", "highway": "bus_stop", "lit": "yes", "name": "Dworzec Główny Wschód 02", "network": "Komunikacja Miejska w Krakowie", "network:short": "KMK", "network:wikidata": "Q11687034", "operator": "Miejskie Przedsiębiorstwo Komunikacyjne w Krakowie;Mobilis", "operator:short": "MPK Kraków", "operator:wikidata": "Q11780297;Q11784310", "passenger_information_display": "no", "public_transport": "platform", "ref": "461-02", "shelter": "no", "tactile_paving": "no"}}}, {"type": "Feature", "geometry": {"type": "Point", "coordinates": [19.9704541, 50.061008]}, "properties": {"osm_id": "node/12270872307", "tags": {"bench": "no", "bin": "yes", "bus": "yes", "covered": "no", "highway": "bus_stop", "lit": "yes", "name": "Fabryczna 06", "network": "KMK", "network:wikidata": "Q11687034", "passenger_information_display": "no", "public_transport": "platform", "ref": "812-06", "shelter": "no", "tactile_paving": "no"}}}, {"type": "Feature", "geometry": {"type": "Point", "coordinates": [19.9706514, 50.0609538]}, "properties": {"osm_id": "node/12270872309", "tags": {"bench": "no", "bin": "yes", "bus": "yes", "covered": "no", "highway": "bus_stop", "lit": "yes", "name": "Fabryczna 05", "network": "KMK", "network:wikidata": "Q11687034", "passenger_information_display": "no", "public_transport": "platform", "ref": "812-05", "shelter": "no", "tactile_paving": "no"}}}, {"type": "Feature", "geometry": {"type": "Point", "coordinates": [19.9494394, 50.0685309]}, "properties": {"osm_id": "node/12285686878", "tags": {"bench": "yes", "bin": "yes", "bus": "yes", "covered": "no", "departures_board": "timetable", "highway": "bus_stop", "lit": "yes", "local_ref": "4", "name": "Dworzec Główny Wschód 01", "network": "Komunikacja Miejska w Krakowie", "network:short": "KMK", "network:wikidata": "Q11687034", "operator": "Miejskie Przedsiębiorstwo Komunikacyjne w Krakowie;Mobilis", "operator:short": "MPK Kraków", "operator:wikidata": "Q11780297;Q11784310", "passenger_information_display": "no", "public_transport": "platform", "ref": "461-01", "shelter": "no", "tactile_paving": "no"}}}, {"type": "Feature", "geometry": {"type": "Point", "coordinates": [19.9495253, 50.0684772]}, "properties": {"osm_id": "node/12285686879", "tags": {"bench": "yes", "bin": "yes", "bus": "yes", "covered": "no", "departures_board": "no", "highway": "bus_stop", "lit": "yes", "local_ref": "2", "name": "Dworzec Główny Wschód 01", "network": "Komunikacja Miejska w Krakowie", "network:short": "KMK", "network:wikidata": "Q11687034", "operator": "Miejskie Przedsiębiorstwo Komunikacyjne w Krakowie;Mobilis", "operator:short": "MPK Kraków", "operator:wikidata": "Q11780297;Q11784310", "passenger_information_display": "no", "public_transport": "platform", "ref": "461-01", "shelter": "no", "tactile_paving": "no"}}}, {"type": "Feature", "geometry": {"type": "Point", "coordinates": [19.9293698, 50.0556858]}, "properties": {"osm_id": "node/12585518939", "tags": {"bench": "no", "bin": "no", "bus": "yes", "highway": "bus_stop", "name": "Nowy Świat 71", "public_transport": "platform", "shelter": "no", "tactile_paving": "no"}}}, {"type": "Feature", "geometry": {"type": "Point", "coordinates": [19.9411384, 50.0520273]}, "properties": {"osm_id": "node/12825422097", "tags": {"bench": "yes", "bin": "yes", "covered": "no", "highway": "bus_stop", "lit": "yes", "name": "Stradom 02", "passenger_information_display": "no", "public_transport": "platform", "ref": "819-2", "shelter": "no", "tactile_paving": "no", "wheelchair": "yes"}}}, {"type": "Feature", "geometry": {"type": "Point", "coordinates": [19.9392981, 50.0543513]}, "properties": {"osm_id": "node/12825422099", "tags": {"bench": "yes", "bin": "yes", "covered": "no", "highway": "bus_stop", "lit": "yes", "name": "Wawel 02", "passenger_information_display": "no", "public_transport": "platform", "ref": "818-2", "shelter": "yes", "tactile_paving": "no", "wheelchair": "yes"}}}, {"type": "Feature", "geometry": {"type": "Point", "coordinates": [19.9407951, 50.0585723]}, "properties": {"osm_id": "node/12825435601", "tags": {"bench": "yes", "bin": "yes", "covered": "no", "highway": "bus_stop", "lit": "no", "name": "św. Gertrudy 02", "passenger_information_display": "no", "public_transport": "platform", "ref": "817-2", "shelter": "yes", "tactile_paving": "no", "wheelchair": "yes"}}}, {"type": "Feature", "geometry": {"type": "Point", "coordinates": [19.939635, 50.054377]}, "properties": {"osm_id": "node/12825665859", "tags": {"bench": "yes", "bin": "yes", "covered": "no", "highway": "bus_stop", "lit": "yes", "name": "Wawel 01", "passenger_information_display": "no", "public_transport": "platform", "ref": "818-1", "shelter": "yes", "tactile_paving": "no", "wheelchair": "yes"}}}, {"type": "Feature", "geometry": {"type": "Point", "coordinates": [19.9299221, 50.0555093]}, "properties": {"osm_id": "node/12825798854", "tags": {"bench": "no", "bin": "no", "covered": "no", "highway": "bus_stop", "name": "Nowy Świat 71", "passenger_information_display": "no", "public_transport": "platform", "shelter": "no", "tactile_paving": "no"}}}, {"type": "Feature", "geometry": {"type": "Point", "coordinates": [19.9281853, 50.0555842]}, "properties": {"osm_id": "node/12825910688", "tags": {"bench": "yes", "bin": "yes", "covered": "no", "departures_board": "timetable", "highway": "bus_stop", "name": "Jubilat 01", "passenger_information_display": "yes", "public_transport": "platform", "ref": "823-01", "shelter": "yes", "tactile_paving": "yes", "wheelchair": "yes"}}}, {"type": "Feature", "geometry": {"type": "Point", "coordinates": [19.9680761, 50.0664119]}, "properties": {"osm_id": "node/12923604453", "tags": {"bench": "yes", "bin": "yes", "covered": "no", "highway": "bus_stop", "lit": "no", "name": "Cystersów 03", "passenger_information_display": "no", "public_transport": "platform", "ref": "803-03", "shelter": "no", "tactile_paving": "no", "wheelchair": "yes"}}}, {"type": "Feature", "geometry": {"type": "Point", "coordinates": [19.9326455, 50.0597604]}, "properties": {"osm_id": "node/13042566491", "tags": {"bench": "no", "bin": "yes", "bus": "yes", "highway": "bus_stop", "name": "Filharmonia 04", "public_transport": "platform", "ref": "822-04", "shelter": "no"}}}, {"type": "Feature", "geometry": {"type": "Point", "coordinates": [19.9348901, 50.0657865]}, "properties": {"osm_id": "node/13923693698", "tags": {"bench": "yes", "bin": "yes", "highway": "bus_stop", "name": "Garbarska 72", "network": "Komunikacja Miejska w Krakowie", "network:short": "KMK", "network:wikidata": "Q11687034", "note": "przystanek tymczasowy", "public_transport": "platform", "ref": "7026-72", "shelter": "no"}}}, {"type": "Feature", "geometry": {"type": "Point", "coordinates": [19.9506244, 50.0506151]}, "properties": {"osm_id": "node/13924050717", "tags": {"bench": "no", "bin": "yes", "bus": "yes", "covered": "no", "highway": "bus_stop", "lit": "no", "name": "Dajwór 01", "network": "Komunikacja Miejska w Krakowie", "network:short": "KMK", "network:wikidata": "Q1784404", "operator": "MPK Kraków", "operator:wikidata": "Q11780297", "passenger_information_display": "no", "public_transport": "platform", "ref": "297-01", "shelter": "no", "tactile_paving": "no", "tram": "yes", "wheelchair": "yes"}}}, {"type": "Feature", "geometry": {"type": "Point", "coordinates": [19.9477952, 50.0583392]}, "properties": {"osm_id": "node/13987747884", "tags": {"covered": "no", "highway": "bus_stop", "name": "Hala Targowa 71", "network": "Komunikacja Miejska w Krakowie", "network:short": "KMK", "network:wikidata": "Q11687034", "note": "przystanek tymczasowy", "passenger_information_display": "no", "public_transport": "platform", "ref": "808-71", "tactile_paving": "no"}}}, {"type": "Feature", "geometry": {"type": "Point", "coordinates": [19.9487671, 50.0588281]}, "properties": {"osm_id": "node/13987747885", "tags": {"covered": "no", "highway": "bus_stop", "name": "Hala Targowa 72", "network": "Komunikacja Miejska w Krakowie", "network:short": "KMK", "network:wikidata": "Q11687034", "note": "przystanek tymczasowy", "passenger_information_display": "no", "public_transport": "platform", "ref": "808-72", "tactile_paving": "no"}}}, {"type": "Feature", "geometry": {"type": "Point", "coordinates": [19.9604166, 50.0655321]}, "properties": {"osm_id": "node/13987866361", "tags": {"bench": "yes", "bin": "yes", "covered": "no", "departures_board": "timetable", "highway": "bus_stop", "lit": "yes", "name": "Rondo Mogilskie 07", "name:network:kmal": "Rondo Mogilskie", "network": "Komunikacja Miejska w Krakowie;Małopolskie Linie Dowozowe", "network:short": "KMK;MLD", "network:wikidata": "Q11687034;Q134701178", "passenger_information_display": "no", "public_transport": "platform", "ref": "802-07", "ref:kmal": "7620", "shelter": "yes", "tactile_paving": "no", "url:kmal": "https://kolejemalopolskie.kiedyprzyjedzie.pl/#/stops/2605198:2703800/departures", "wheelchair": "yes"}}}, {"type": "Feature", "geometry": {"type": "Point", "coordinates": [19.957729, 50.0577233]}, "properties": {"osm_id": "node/13987890119", "tags": {"bench": "yes", "bin": "no", "bus": "yes", "covered": "no", "departures_board": "timetable", "highway": "bus_stop", "lit": "no", "name": "Rondo Grzegórzeckie 08", "network": "KMK", "network:wikidata": "Q11687034", "operator": "Zarząd Transportu Publicznego w Krakowie", "operator:wikidata": "Q110401950", "passenger_information_display": "no", "public_transport": "platform", "ref": "809-08", "shelter": "yes", "tactile_paving": "no", "wheelchair": "yes"}}}, {"type": "Feature", "geometry": {"type": "Point", "coordinates": [19.9601968, 50.0576825]}, "properties": {"osm_id": "node/13987927802", "tags": {"bench": "yes", "bin": "yes", "bus": "yes", "highway": "bus_stop", "lit": "yes", "name": "Rondo Grzegórzeckie 07", "network": "Komunikacja Miejska w Krakowie", "network:short": "KMK", "network:wikidata": "Q11687034", "operator": "Zarząd Transportu Publicznego w Krakowie", "operator:wikidata": "Q110401950", "public_transport": "platform", "ref": "809-07", "shelter": "yes", "tactile_paving": "yes", "wheelchair": "yes"}}}, {"type": "Feature", "geometry": {"type": "Point", "coordinates": [19.9595264, 50.0583053]}, "properties": {"osm_id": "node/13987927811", "tags": {"bench": "yes", "bin": "yes", "bus": "yes", "covered": "no", "highway": "bus_stop", "lit": "yes", "name": "Rondo Grzegórzeckie 06", "network": "Komunikacja Miejska w Krakowie", "network:short": "KMK", "network:wikidata": "Q11687034", "operator": "Zarząd Transportu Publicznego w Krakowie", "operator:wikidata": "Q110401950", "passenger_information_display": "no", "public_transport": "platform", "ref": "809-06", "shelter": "yes", "surface": "paving_stones", "tactile_paving": "yes", "wheelchair": "yes"}}}, {"type": "Feature", "geometry": {"type": "Point", "coordinates": [19.9586756, 50.0569893]}, "properties": {"osm_id": "node/13987927825", "tags": {"bench": "yes", "bin": "yes", "bus": "yes", "covered": "no", "highway": "bus_stop", "lit": "yes", "name": "Rondo Grzegórzeckie 05", "network": "Komunikacja Miejska w Krakowie", "network:short": "KMK", "network:wikidata": "Q11687034", "operator": "Zarząd Transportu Publicznego w Krakowie", "operator:wikidata": "Q110401950", "passenger_information_display": "no", "public_transport": "platform", "ref": "809-05", "shelter": "yes", "tactile_paving": "no", "wheelchair": "yes"}}}]}